Name,Url,Telephone,Longitude,Latitude,AddressRegion,AddressLocality,AddressCountry,Tags
Dwyer McAllister Cottage,http://www.heritageireland.ie/en/midlands-eastcoast/dwyermcallistercottage,35340445325,-6.5648108,52.9619268999999,Wicklow,Donard,Ireland,"Historic Houses and Castle,Museums and Attraction"
Valentia Island - Kerry,https://www.discoverireland.ie/kerry,,-10.3624787374577,51.9057706613253,Kerry,,Republic of Ireland,"Restaurant,Craft,Shopping,Bird Watching,Nature and Wildlife,Climbing,Activity Operator,Cruising,Cycling,Fishing,Angling,Gardening,Horse Riding,Equestrian,Kayaking,Kitesurfing,Windsurfing,Photography,Learning,Sailing,Swimming,Swimming Pools and Water Park,Venue,Walking,Historic Houses and Castle,Island,Offshore Island,Natural Landscape,Cafe,Food and Drink,Local Produce,Pubs and Bar,Seafood"
The Wicklow Way,https://visitwicklow.ie/the-wicklow-way/,,-6.2683925,53.2773496,Dublin,Rathfarnham,Ireland,"Cycling,Walking,Natural Landscape"
The Táin Way,http://carlingfordandcooleypeninsula.ie/carlingford-activities/walking-trails/t%C3%A1in-way,+353(0)429373033,-6.39708,54.004607,Louth,Carlingford,Republic of Ireland,"Walking,Natural Landscape"
"Walking - The Western Way, Galway",http://www.thewesternway.ie,+353(0)9541116,-9.048728,53.276473,Galway,Galway City,Republic of Ireland,"Walking,Natural Landscape"
The Barrow Way,https://carlowtourism.com/the-barrow-way,35345521240,-6.99618322113859,53.2219355188289,Kildare,,Republic of Ireland,"Walking,Natural Landscape"
Dun na Rí Forest Park,http://www.coillte.ie/site/dun-a-ri-forest-park/,353494331942,-6.79266149999999,53.9189778,Cavan,Kingscourt,Ireland,"Walking,Forest Park,Park and Forest Walk,National Park,National and Forest Park,Public Park,Nature and Wildlife"
Tipperary Heritage Way,http://www.irishtrails.ie/trail/tipperary-heritage-way/36/,3536255467,-7.88582982915318,52.516411290825,Tipperary,Tipperary Town,Republic of Ireland,"Walking,Natural Landscape"
The Mid Clare Way,https://www.sportireland.ie/outdoors/walking/trails/mid-clare-way,353656835912,-8.8990055,52.7606678,Clare,Newmarket,Ireland,"Walking,Natural Landscape"
The North Kerry Way,,+353(0)667121288,-9.706157,52.26677,Kerry,Tralee,Republic of Ireland,"Walking,Natural Landscape"
Bray to Greystones Walk,https://visitwicklow.ie/item/cliff-walk-bray-to-greystones/,35340469117,-6.043428,52.98086,Wicklow,Wicklow Town,Republic of Ireland,"Walking,Natural Landscape"
The South Leinster Way,http://www.irishtrails.ie/Trail/South-Leinster-Way/33/,,-6.92880990423212,52.6020792718812,Carlow,Borris,Republic of Ireland,"Walking,Natural Landscape"
Brandon Hill Loop,http://www.trailkilkenny.ie/activity-trail/walking-trails/brandon-hill/,+353(0)567763995,-6.9555078142223,52.5408705206418,Kilkenny,Graiguenamanagh,Republic of Ireland,"Walking,Natural Landscape"
Muckross Lake Loop and Torc Waterfall,https://www.killarneynationalpark.ie/explore/walking-hiking/walking-trails/torc/,,-9.5042922,52.0180827,Kerry,Killarney,Ireland,"Walking,National Park,National and Forest Park"
The Westmeath Way,https://www.visitwestmeath.ie/get-outdoors/walks-wilderness/the-westmeath-way/,,-7.31712,53.525,Westmeath,Kilbeggan,Republic of Ireland,"Walking,Natural Landscape"
Listowel River Walk,http://www.irishtrails.ie/Trail/Listowel-Village-Walks---River-Walk/609/,,-9.48392527411675,52.4471201192782,Kerry,Listowel,Republic of Ireland,"Walking,Castle,Historic Houses and Castle,Public Park,Nature and Wildlife,Public Sculpture"
Ballybunion 'Walking the Beach' Looped Walk,http://www.irishtrails.ie/Trail/Ballybunion-Loops---Beach-Walk/607/,+353(0)667121288,-9.67172770562618,52.5235018831357,Kerry,Ballybunion,Republic of Ireland,"Walking,Beach,Natural Landscape"
Ballybunion Cliff Walk,http://www.irishtrails.ie/Trail/Ballybunion-Loops---Cliff-Walk/604/,,-9.67172804668427,52.5235108653928,Kerry,Ballybunion,Republic of Ireland,"Walking,Beach,Natural Landscape"
Ballybunion Lahardane Walk,http://www.irishtrails.ie/Trail/Ballybunion-Loops---Lahardane-Hill-Walk/608/,+353(0)667121288,-9.65311650720219,52.5081260316832,Kerry,Ballybunion,Republic of Ireland,"Walking,Natural Landscape"
Glenbarrow - Old Mill Loop,https://www.coillte.ie/site/glenbarrow/,,-7.52564375817589,53.1497079212292,Laois,Clonaslee,Republic of Ireland,"Walking,Natural Landscape"
Rosses Point Coastal Walk,https://www.discoverireland.ie/sligo,,-8.55710770852084,54.3083457216238,Sligo,Rosses Point,Republic of Ireland,"Walking,Natural Landscape,Public Sculpture"
Balrath Wood,,+353(0)18358022,-6.95231592323352,53.7055705311591,Meath,Balrath,Republic of Ireland,"Walking,Forest Park,Park and Forest Walk,National Park,National and Forest Park,Public Park,Nature and Wildlife"
Castlemorris - Fern Loop,http://www.irishtrails.ie/Trail/Castlemorris---Fern-loop-/119/,,-7.21281944384092,52.4839888651012,Kilkenny,Knocktopher,Ireland,"Walking,Natural Landscape"
Piltown - Mountain Grove Loop,http://www.trailkilkenny.ie,+353(0)567752111,-7.34111359480207,52.3537317834319,Kilkenny,,Ireland,"Walking,Natural Landscape"
Drewstown Woods - Girley Bog Loop,http://www.irishtrails.ie,+353(0)469248856,-6.93338233325073,53.6740628176121,Meath,Kells,Ireland,"Walking,Natural Landscape"
Fawnglass Loop,https://www.irishtrails.ie/trail/Clare-Island---Fawnglass-loop/143/,,-9.9881419536732,53.7924554847732,Mayo,Clare Island,Republic of Ireland,"Walking,Island,Offshore Island"
Lough Coolaknick Loop,http://www.inishturkisland.com/things-to-do/looped-walks,,-10.1066283319689,53.7034637529079,Mayo,Inishturk,Republic of Ireland,"Walking,Island,Offshore Island"
Rath Beag Loop,https://www.sportireland.ie/outdoors/walking/trails/rath-beag-loop,,-7.5833235,52.3136617999999,Waterford,,Ireland,"Walking,Natural Landscape"
Lough Mohra Loop,https://www.sportireland.ie/outdoors/walking/trails/lough-mohra-loop,,-7.58628264054004,52.3198744373685,Waterford,,Ireland,"Walking,Forest Park,Park and Forest Walk,Natural Landscape"
Glanageenty Loop,http://www.irishtrails.ie/Trail/Glanageenty-loop-/112/,,-9.45894969585576,52.2329715133028,Kerry,,Ireland,"Walking,Forest Park,Park and Forest Walk,Natural Landscape"
Jenkinstown Wood - Walled Garden Loop,http://www.irishtrails.ie/Trail/Jenkinstown-Wood---Walled-Garden-loop/124/,,-7.28980498656721,52.7305068893433,Kilkenny,Jenkinstown,Ireland,"Walking,Gardens,Garden,Natural Landscape"
Jenkinstown Wood Loop,http://www.irishtrails.ie/Trail/Jenkinstown-Wood---Jenkinstown-Wood-loop/125/,,-7.28448348388166,52.7311695788291,Kilkenny,Kilkenny City,Ireland,"Walking,Natural Landscape"
Crone Woods - Maulin Mountain Loop,http://www.coillteoutdoors.ie,,-6.217855,53.165044,Wicklow,,Ireland,"Climbing,Activity Operator,Walking,Natural Landscape"
Donadea Forest Park - Aylmer Loop,http://www.coillteoutdoors.ie/sites_and_trails/recreation_site_information/?rec_site=5&activity=&no_cache=1,,-6.77292302671348,53.328444456581,Kildare,,Ireland,"Walking,Forest Park,Park and Forest Walk,Natural Landscape"
Achill Cycle Hub,http://www.irishtrails.ie/Trail/Achill-Cycle-Hub---Loop-1/1144/,+353(0)9847353,-9.99073259547387,53.9626100660387,Mayo,Cashel,Republic of Ireland,"Cycling,Island,Offshore Island"
Glanteenassig Wood,http://www.coillteoutdoors.ie,+353(0)667163378,-10.029291257227,52.2057091344992,Kerry,Castlegregory,Republic of Ireland,"Bird Watching,Nature and Wildlife,Cycling,Fishing,Angling,Walking,Forest Park,Park and Forest Walk,Natural Landscape"
Commons Loop,http://www.carlingford.ie,+353(0)429373033,-6.18602350592071,54.0379000768116,Louth,Carlingford,Republic of Ireland,"Walking,Natural Landscape"
Slieve Foye Loop,https://www.visitlouth.ie/explore-and-do/do/tours-and-trails-louth/cooley-and-slieve-foye-walks-and-hikes.html,+353(0)429373033,-6.18602350592071,54.0379000768116,Louth,Carlingford,Republic of Ireland,"Walking,Natural Landscape"
Clogrennane Wood Loop,https://carlowtourism.com/clogrennane-wood-looped-walk-2,,-6.96704855641666,52.7390557031802,Carlow,,Republic of Ireland,"Walking,Forest Park,Park and Forest Walk,Natural Landscape"
Mangan's Loop,,,-6.46419554011366,52.7990486241438,Wicklow,Tinahely,Republic of Ireland,"Walking,Natural Landscape"
Ballycumber Loop,http://www.irishtrails.ie/Trail/Ballycumber-loop/398/,,-6.46419554011366,52.7990486241438,Wicklow,Tinahely,Republic of Ireland,"Climbing,Activity Operator,Walking,Forest Park,Park and Forest Walk,Natural Landscape"
Kyle Loop,http://www.irishtrails.ie/Trail/Kyle-Loop/399/,,-6.46419554011366,52.7990486241438,Wicklow,Tinahely,Republic of Ireland,"Climbing,Activity Operator,Walking,Natural Landscape"
Druid's Loop,http://www.irishtrails.ie/Trail/Druid-s-Loop---Bonane-Beara/472/,,-9.53664263940208,51.8160127296,Kerry,Bonane,Republic of Ireland,"Walking,Natural Landscape"
Fionn MacCool Loop,http://www.irishtrails.ie/Trail/Fionn-MacCool-Loop---Bonane-Beara/473/,,-9.53664263940208,51.8160127296,Kerry,Bonane,Republic of Ireland,"Walking,Natural Landscape"
Slí Cholmcille,http://www.irishtrails.ie/trail/Sli-Cholmcille/13/,+353(0)749721148,-8.71477570036982,54.6997030560807,Donegal,Glencolmcille,Republic of Ireland,"Walking,Natural Landscape"
Slí Na Finne,,+353(0)749721148,-8.1162042430152,54.8694215846037,Donegal,,Republic of Ireland,"Walking,Natural Landscape"
Slí na Rosann,https://www.govisitdonegal.com/things-to-do/activities/sli-na-rossan-sli-dhun-na-ngall,+353(0)749721148,-8.3633753917632,54.9517634921175,Donegal,,Republic of Ireland,"Walking,Natural Landscape"
The Western Way (Mayo),http://thewesternway.ie/,,-9.63915735447483,53.6475566101385,Mayo,Westport,Republic of Ireland,"Walking,Natural Landscape"
Freshford Loop,http://www.trailkilkenny.ie,,-7.39974116938163,52.7345016288219,Kilkenny,Freshford,Republic of Ireland,"Walking,Natural Landscape"
Nore Valley Walk (Kilkenny to Bennettsbridge section),http://www.trailkilkenny.ie/activity-trail/walking-trails/kilkenny-to-bennettsbridge,+353(0)860485553,-7.22997132879709,52.6450794674924,Kilkenny,Kilkenny City,Ireland,"Walking,Natural Landscape"
Lough Avalla Farm Looped Walk,https://www.alltrails.com/trail/ireland/county-clare/farm-loop,,-9.0640874,52.9448216,Clare,Corofin,Ireland,"Walking,Natural Landscape"
Durrow Leafy Loops - Leafy loop,https://www.sportireland.ie/outdoors/walking/trails/durrow-leafy-loops-leafy-loop?county=35&grade=All&length=All#list,,-7.39579761602658,52.8468523376508,Laois,,Ireland,"Walking,Natural Landscape"
Carlow Town Walk - Slí na Sláinte,https://carlowtourism.com/carlow-town-walk/,353599130411,-6.9294889,52.8352498,Carlow,,Ireland,"Walking,Historic Houses and Castle,Public Park,Nature and Wildlife"
Coolmelagh - Prospect Loop,http://www.irishtrails.ie/Trail/Coolmelagh---Prospect-Loop/427/,,-6.58039065167167,52.68619665595,Wexford,Bunclody,Ireland,"Walking,Forest Park,Park and Forest Walk,Natural Landscape"
Castlemorris - Pheasant loop,http://www.irishtrails.ie,,-7.27888154851484,52.4705016012607,Kilkenny,Knocktopher,Ireland,"Walking,Natural Landscape"
Lough Boora Sculpture Loop,https://www.loughboora.com/sculpture,353879904234,-7.72680199999999,53.220112,Offaly,Tullamore,Ireland,"Walking,Activity Operator,Public Sculpture"
Castlemorris Wood - Holly Loop,http://www.irishtrails.ie/Trail/Castlemorris---Holly-loop/120/,,-7.27840947972822,52.4706061720635,Kilkenny,Knocktopher,Ireland,"Walking,Natural Landscape"
O'Gorman's Lane Loop Walk,http://www.irishtrails.ie/Trail/O-Gormans-Lane-/583/,,-7.18228840808342,52.5923527730017,Kilkenny,Bennettsbridge,Ireland,"Walking,Natural Landscape"
Nore Valley Walk - (Thomastown to Inistioge Section),http://www.trailkilkenny.ie,353567752111,-7.13344700555285,52.5199709525296,Kilkenny,Kilkenny City,Ireland,"Walking,Natural Landscape"
Monicknew Trails,http://www.irishtrails.ie/Trail/Monicknew---Valley-Walk/256/,,-7.54632895409872,53.0759841249754,Laois,Clonaslee,Ireland,"Walking,Natural Landscape"
Portumna Forest Park - Rinmaher Walking Trail,https://www.coillte.ie/site/portumna-forest-park/,,-8.2484955102783,53.083038345911,Galway,Portumna,Ireland,"Walking,Natural Landscape"
Molly Loop,http://www.irishtrails.ie/trails.aspx?c=Louth,,-6.18798426826174,54.0432735750473,Louth,Grange,Ireland,"Walking,Natural Landscape"
Avondale Forest Park - Centenary Trail,https://www.coillte.ie/site/avondale-forest-park/,,-6.2265377338989,52.9164790018516,Wicklow,Rathdrum,Ireland,"Cycling,Walking,Forest Park,Park and Forest Walk,Natural Landscape"
Broadford Ashford Walking Trails - Killagholehane Way,http://walkbroadfordashford.com/trail/killagholehane-way/,,-8.972707,52.346003,Limerick,Broadford,Ireland,"Walking,Ruins,Historic Houses and Castle"
Sliabh Liag Pilgrims Path - Cosán an Oilithrigh,http://www.sliabhliag.com/things-to-do/walking-tours/,,-8.661148,54.641357,Donegal,Teelin,Ireland,"Walking,Natural Landscape"
Killaspugbrone Loop,https://sligowalks.ie/walks/killaspugbrone-loop/,,-8.60900710883186,54.2716526115869,Sligo,Strandhill,Ireland,"Walking,Church Abbey,Monastery,Churches,Abbeys and Monastery,Ruins,Historic Houses and Castle"
Keel Uphill Downhill Loop,http://irishtrails.ie/Trail/Keel-Uphill-Downhill-Loop-Walk/666/,,-9.75639704597176,52.1763680812833,Kerry,Castlemaine,Ireland,"Walking,Natural Landscape"
Windgap Village Loop,http://facebook.com/windgap.tidytowns,+353(0)874186077,-7.39874181726611,52.4641415470614,Kilkenny,Windgap,Ireland,"Walking,Natural Landscape"
Bearna Breac Loop,http://facebook.com/windgap.tidytowns,+353(0)874186077,-7.39869085529483,52.4641897546618,Kilkenny,Windgap,Ireland,"Walking,Natural Landscape"
The Tinahely Loop,http://www.irishtrails.ie/Trail/Tinahely-Loop/688/,35386396893,-6.4555599840927,52.7906337976792,Wicklow,Tinahely,Ireland,"Climbing,Activity Operator,Walking,Natural Landscape"
Tóchar Daithí Bán,https://www.wildnephinnationalpark.ie/,+353(0)9849888,-9.823505,54.024505,Mayo,Westport,Republic of Ireland,"Bird Watching,Nature and Wildlife,Walking,Forest Park,Park and Forest Walk,National Park,National and Forest Park,Public Park"
Derrycassin Walks,http://visitlongford.ie/listings/derrycassin-woods-walk/,+353(0)433342577,-7.53875165305779,53.8307603495165,Longford,,Republic of Ireland,"Walking,Natural Landscape"
Newcastle Woods,https://www.longford.ie/en/visit/trails/newcastle-woodland-trail/,353433343509,-7.7261067,53.5621238,Longford,,Ireland,"Walking,Natural Landscape"
Ballinamuck Bog Loop,http://www.irishtrails.ie/Trail/Ballinamuck---Bog-Walk/139/,,-7.71748294931976,53.8668094562941,Longford,Ballinamuck,Ireland,"Walking,Natural Landscape"
The Cavan Way,https://www.thisiscavan.ie/fun/go/walking,353494378543,-8.01507229944411,54.1899060717684,Cavan,Dowra,Republic of Ireland,"Walking,Natural Landscape"
Tory Hill - Frochans Loop,http://www.trailkilkenny.ie,,-7.17550685964235,52.3678781162157,Kilkenny,Mullinavat,Republic of Ireland,"Walking,Natural Landscape"
Cavan Burren Park Walks,https://www.thisiscavan.ie/fun/go/walking,353499526121,-7.87730349724676,54.2912772769848,Cavan,Blacklion,Ireland,"Walking,Forest Park,Park and Forest Walk,Natural Landscape,Public Park,Nature and Wildlife"
The Suck Valley Way,https://www.discoversuckvalleyway.ie/index.php,353830698795,-8.26174457458819,53.5696520242896,Roscommon,Athleague,Republic of Ireland,"Walking,Forest Park,Park and Forest Walk,Ruins,Historic Houses and Castle"
The East Clare Way,http://www.irishtrails.ie/trail/East-Clare-Way/16/,+353(0)656835912,-8.75882152363975,52.8684217484044,Clare,Tulla,Republic of Ireland,"Walking,Natural Landscape"
Ballyconnell Canal Loop,https://www.sportireland.ie/outdoors/walking/trails/ballyconnell-canal-loop,,-7.5831795308502,54.1161665453187,Cavan,Ballyconnell,Ireland,"Walking,Natural Landscape"
Cape Clear Gleann Loop,https://westcorkislands.com/gleann-loop-walk-cape-clear/,,-9.50026847744141,51.4417107717686,Cork,,Ireland,"Walking,Natural Landscape"
Slí Árainn Mhór - Arranmore Island Loop,,353749520533,-8.53629034834988,54.9963347391069,Donegal,,Republic of Ireland,"Walking,Natural Landscape"
Tullahought Kilmacoliver Loop Walk,http://www.trailkilkenny.ie,,-7.37310434813116,52.4225628373649,Kilkenny,,Republic of Ireland,"Walking,Natural Landscape"
Durrow Leafy Loops -Dunmore Woods Loop,https://www.sportireland.ie/outdoors/walking/trails/durrow-leafy-loops-dunmore-woods-loop,,-7.39442432501095,52.8476817254982,Laois,,Ireland,"Walking,Natural Landscape"
Abbeyleix Loops - Killamuck Bog,http://www.irishtrails.ie/Trail/Abbeyleix-Loops---Killamuck-Bog-loop/623/,,-7.35307920316802,52.9068305299692,Laois,Abbeyleix,Ireland,"Walking,Natural Landscape"
Carrowteige - Black Ditch Loop,https://www.irishtrails.ie/Trail/Carrowteige---Black-Ditch-loop/140/ ,,-9.98701605418876,54.2213826688354,Mayo,,Republic of Ireland,"Walking,Public Park,Nature and Wildlife,Public Sculpture"
Carrowteige - Children of Lir Loop,http://www.irishtrails.ie/Trail/Carrowteige--Children-of-Lir--Loop/141/,,-9.8136380634661,54.3126117314066,Mayo,,Republic of Ireland,"Walking,Public Park,Nature and Wildlife,Public Sculpture"
Clare Island - Knocknaveen Loop,http://www.clareisland.info,,-9.9881419536732,53.7924554847732,Mayo,Clare Island,Republic of Ireland,"Walking,Island,Offshore Island"
Inishbiggle - Gubnadoogha Loop Walk,http://www.irishtrails.ie/Trail/Achill-Island---Gubnadoogha-Loop/494/,,-9.90875510650971,53.9960145887544,Mayo,Ballycroy,Republic of Ireland,"Walking,Island,Offshore Island"
Achill Island - Dooagh Loop Walk,http://www.irishtrails.ie/Trail/Achill-Island---Dooagh-Loop/498/,,-10.1242851467434,53.9729098377986,Mayo,,Republic of Ireland,"Walking,Natural Landscape"
Mulranny - Lookout Hill Loop,http://www.irishtrails.ie/Trail/Mulranny---Lookout-Hill-loop/592/,,-9.79020239645016,53.9040112024891,Mayo,Westport,Republic of Ireland,"Walking,Natural Landscape"
Grange Loops - Rooskey Loop,http://www.irishtrails.ie/trails.aspx?c=Louth,,-6.18867091376955,54.0428703926602,Louth,Grange,Ireland,"Walking,Natural Landscape"
Nire Valley Trails - Coumduala Looped Walk,http://www.irishtrails.ie/Trail/Nire-Valley-Trails---Coumduala-loop/617/,+353(0)51875823,-7.63491881650384,52.2769571844086,Waterford,,Ireland,"Walking,Natural Landscape"
Inishbiggle - Bull's Mouth Loop Walk,http://www.irishtrails.ie/Trail/Achill-Island---Bull-s-Mouth-Loop/495/,,-9.90078203395046,53.9951163669387,Mayo,,Republic of Ireland,"Walking,Island,Offshore Island"
Rinn Duin Castle Loop,https://www.sportireland.ie/outdoors/walking/trails/rinn-duin-castle-loop?county=53&grade=402&length=All#list,+353(0)906630252,-8.00432573022647,53.544196661934,Roscommon,,Republic of Ireland,"Walking,Castle,Historic Houses and Castle,Ruins"
Cronin's Yard Looped Walk,http://croninsyard.com/,,-9.63345924843568,52.073673013566,Kerry,Beaufort,Republic of Ireland,"Climbing,Activity Operator,Walking,Natural Landscape"
Emlagh Loop,http://www.irishtrails.ie/trail/Emlagh-Loop/685/,,-10.2730897585937,51.8246811402223,Kerry,,Ireland,"Walking,Beach,Natural Landscape"
The Sligo Way,https://sligowalks.ie/walks/the-sligo-way/,,-8.46535,54.2711,Sligo,,Republic of Ireland,"Walking,Forest Park,Park and Forest Walk,Natural Landscape"
Annaloughan Loop,http://www.irishtrails.ie/Trail/Annaloughan-loop/488/,+353(0)429352111,-6.18602350592071,54.0379000768116,Louth,Jenkinstown,Republic of Ireland,"Walking,Natural Landscape"
Glenbarrow Eco Walk,http://slievebloom.ie/walking/glenbarrow,,-7.52521460473349,53.149038742129,Laois,,Ireland,"Walking,Natural Landscape"
Great Western Greenway - Castlebar to Turlough,https://www.sportireland.ie/outdoors/walking/trails/great-western-greenway-castlebar-to-turlough,,-9.2919368,53.8581124,Mayo,Castlebar,Ireland,"Walking,Natural Landscape"
Monaghan Greenway,https://www.irishtrails.ie/Trail/Monaghan-Greenway/895/,,-6.96830819999999,54.2492434,Monaghan,,Ireland,"Walking,Natural Landscape"
Kilronan Castle Loop,https://www.sportireland.ie/outdoors/walking/trails/kilronan-castle-looped-walks-kilronan-castle-loop?county=53&grade=All&length=All#list,,-8.1812497,54.0632659,Roscommon,,Ireland,"Walking,Natural Landscape"
Ardmore Cliff Walk,https://www.irishtrails.ie/Trail/Ardmore-Cliff-Walk/570/,,-7.7151578,51.9487667999999,Waterford,Ardmore,Ireland,"Walking,Natural Landscape"
St. Kevin's Way - Pilgrim Path,https://www.irishtrails.ie/Trail/St-Kevins-Way---Pilgrim-Path-/371/,,-6.599053,53.0918211,Wicklow,Hollywood,Ireland,"Walking,Natural Landscape"
Blackwater Way - Avondhu,https://www.sportireland.ie/outdoors/walking/trails/blackwater-way-avondhu,35318608800,-7.99510279999999,52.2770793999999,Tipperary,Clogheen,Ireland,"Walking,Natural Landscape"
Ballycastle Sralagagh Walk,http://www.mayowalks.ie/WalkingTrails/LocalisedLoopWalks/BallycastleSralagaghLoop/,,-9.3724643,54.2796698,Mayo,Ballycastle,Ireland,"Walking,Natural Landscape"
Slish Wood Forest Walk,https://www.coillte.ie/site/slish-wood/,,-8.4012546,54.2309113,Sligo,,Ireland,"Walking,Natural Landscape"
 Muckish - Lúb Loch Achair,https://www.govisitdonegal.com/things-to-do/activities/muckish-lub-loch-achair,,-7.90946759999999,55.1233497,Donegal,Creeslough,Ireland,"Walking,Natural Landscape"
Benbulben Loop,https://www.sportireland.ie/outdoors/walking/trails/ben-bulben-loop,,-8.47444439999999,54.3666667,Sligo,,Ireland,"Walking,Natural Landscape"
 Belleek Nature Trail,https://www.coillte.ie/site/belleek/,,-9.1550693,54.1149482,Mayo,Ballina,Ireland,"Walking,Natural Landscape"
Coole Park Seven Woods Trail,https://www.coolepark.ie/trails/,,-8.83696999999999,53.0885494,Galway,,Ireland,"Walking,Natural Landscape"
Dunbrody Abbey and Visitor Centre,http://www.dunbrodyabbey.com,353862759149,-6.95523,52.282115,Wexford,Campile,Ireland,"Craft,Shopping,Walking,Historic Houses and Castle,Castle,Church Abbey,Monastery,Churches,Abbeys and Monastery,Museums and Attraction,Cafe,Food and Drink,Activity Operator,Tour"
Drogheda Museum Millmount,http://www.millmount.net,353419833097,-6.35025503802876,53.7117853993422,Louth,Drogheda,Republic of Ireland,"Craft,Shopping,Learning,Museums and Attraction,Artisan,Food and Drink,Restaurant,Cafe,Tour"
The National Garden Exhibition Centre - Arboretum Kilquade,https://www.arboretum.ie/arboretum-kilquade,35315313488,-6.08867339999999,53.1130485,Wicklow,Kilquade,Ireland,"Restaurant,Gardening,Nature and Wildlife,Gardens,Garden,Food and Drink,Food Shops,Shopping"
Hyde Bridge Gallery,https://www.yeatssociety.com/,353719142693,-8.474933,54.272077,Sligo,Sligo Town,Republic of Ireland,"Craft,Shopping,Art Gallery"
Monaghan County Museum,https://monaghan.ie/museum/,3534782928,-6.9724846,54.2478562,Monaghan,,Ireland,"Historic Houses and Castle,Museums and Attraction,Tour"
Knock Museum,https://www.knockshrine.ie/key-places-to-visit/knock-museum/,353949388100,-8.91715329999999,53.7900043,Mayo,Knock,Ireland,"Church Abbey,Monastery,Churches,Abbeys and Monastery,Museums and Attraction,Cafe,Food and Drink"
Michael J Quill Centre,http://www.historic-ireland.com/places/778.html,353646685511,-9.46143,51.902656,Kerry,Kilgarvan,Republic of Ireland,Museums and Attraction
Donegal Railway Heritage Centre,http://donegalrailway.com/,353749722655,-8.10802239999999,54.656847,Donegal,Milltown,Ireland,"Transport,Activity Operator,Museums and Attraction,Tour,Coach,Road"
Garter Lane Art Gallery,http://www.garterlane.ie,+353(0)51855038,-7.116447,52.262574,Waterford,Waterford City,Republic of Ireland,"Learning,Movies,Cinema,Venue,Activity Operator,Art Gallery,Music"
Waterford County Museum,https://www.waterfordmuseum.ie/exhibit/web,3535845960,-7.61940109999999,52.0886326,Waterford,Dungarvan,Ireland,"Museums and Attraction,Tour"
Kilgarvan Motor Museum,https://www.facebook.com/Kilgarvan-Motormuseum-708264642618370,353646685346,-9.43416399999999,51.889134,Kerry,,Ireland,"Museums and Attraction,Cafe,Food and Drink,Tour"
Sonairte The National Ecology Centre,http://www.sonairte.ie,353419827572,-6.257022,53.6780762,Meath,Laytown,Ireland,"Agriculture,Nature and Wildlife,Food and Drink,Restaurant,Gardening,Learning,Activity Operator,Natural Landscape,Cafe,Local Produce"
River Inny,http://www.fishinginireland.info,35318842600,-7.32313105065918,53.6684318616526,Dublin,Swords,Republic of Ireland,"Fishing,Angling,River,Discovery Point"
Isaac Butt Heritage Centre,https://www.facebook.com/isaacbuttheritagecommittee,353749133108,-7.9324749,54.8384012,Donegal,,Ireland,Museums and Attraction
West Cork Music,https://www.westcorkmusic.ie/,3532752788,-9.4489112,51.6804291,Cork,Bantry,Ireland,"Learning,Literary Ireland,Venue,Music"
St Brigid’s Cathedral & Round Tower,http://www.stbrigidscathedral.com/,,-6.91137099999999,53.1579272,Kildare,,Ireland,"Historic Houses and Castle,Church Abbey,Monastery,Churches,Abbeys and Monastery"
Croppies Grave,http://www.igp-web.com/Carlow/croppies_graves.htm,,-6.9391607,52.8389539,Carlow,,Ireland,Public Sculpture
Duiske Abbey,https://villageofthemonks.com/duiskeabbey,,-6.9546547,52.5411102,Kilkenny,Graiguenamanagh,Ireland,"Historic Houses and Castle,Church Abbey,Monastery,Churches,Abbeys and Monastery"
Newtown Castle,https://www.newtowncastle.com/history,353657077200,-9.16938609999999,53.1033781999999,Clare,Newtown,Ireland,"Walking,Castle,Historic Houses and Castle"
Stephen Bennett Studio Gallery,https://stephenbennett.net/,353877923205,-8.437291,54.78503,Donegal,Ardara,Ireland,"Craft,Shopping,Art Gallery"
Carran Medieval Church,,353656828366,-9.0760449,53.0376019,Clare,Carran,Ireland,"Church Abbey,Monastery,Churches,Abbeys and Monastery"
Gleninagh Castle,,,-9.205829,53.1377228,Clare,,Ireland,"Castle,Historic Houses and Castle"
Kilnaboy Medieval Church and Round Tower,,353656828366,-9.079651,52.972126,Clare,Ennis,Republic of Ireland,"Church Abbey,Monastery,Churches,Abbeys and Monastery"
Leamaneh Castle,,,-9.1399531,52.987804,Clare,,Ireland,"Castle,Historic Houses and Castle"
Quin Abbey,https://www.clare.ie/do/quin-abbey/,35391844084,-8.86307,52.8191037,Clare,Quin,Ireland,"Church Abbey,Monastery,Churches,Abbeys and Monastery"
Temple Cronan Early Christian Church,,353656828366,-9.0609731,53.0461691999999,Clare,,Ireland,"Church Abbey,Monastery,Churches,Abbeys and Monastery"
Saint Cronan's 10th Century Church Tuamgraney,http://www.discoverloughderg.ie/tuamgraney-church,35361921351,-8.5393666,52.8966945,Clare,Tuamgraney,Ireland,"Church Abbey,Monastery,Churches,Abbeys and Monastery"
Carrigogunnell Castle,http://www.megalithicireland.com/Carrigogunnell%20Castle.html,35361317522,-8.741821,52.646438,Limerick,Limerick City,Republic of Ireland,"Castle,Historic Houses and Castle"
Glenquin Castle,https://www.limerick.ie/discover/eat-see-do/history-heritage/historic-attractions/glenquin-castle,35361396255,-9.106741,52.3839378999999,Limerick,Glenquin,Ireland,"Castle,Historic Houses and Castle"
Teach Bán Nua Artist Gallery,https://teachban-artgallery.com/,353894506085,-8.49480289999999,54.32611,Sligo,,Ireland,"Craft,Shopping,Art Gallery"
Cushendale Woollen Mills,https://cushendale.ie/,353599724118,-6.9574638,52.5410159,Kilkenny,Graiguenamanagh,Ireland,"Craft,Shopping,Shopping Centres and Department Store,Activity Operator,Historic Houses and Castle,Food Shops"
Ballitore Library & Quaker Museum,http://www.kildare.ie/Library/Library/BallitoreLibrary,353598623344,-6.814924,53.009722,Kildare,Ballitore,Ireland,Museums and Attraction
Fintown Railway,https://www.facebook.com/fintownrailway,353749546280,-8.120414,54.8676191,Donegal,,Ireland,"Transport,Activity Operator,Museums and Attraction,Coach,Road"
Kerry Geopark,https://www.facebook.com/kerrygeopark,+353(0)877934663,-9.897747,51.837759,Kerry,Sneem,Republic of Ireland,"Walking,Natural Landscape,Activity Operator"
Dolly's Cottage,https://www.facebook.com/DollysCottage,353719168079,-8.5841759,54.270777,Sligo,Strandhill,Ireland,"Castle,Historic Houses and Castle"
Anne Osborne Watercolours,https://www.facebook.com/AnneOsborneWatercolours,353862436740,-8.5999892,54.2707875,Sligo,,Ireland,"Craft,Shopping,Art Gallery,Food Shops"
Gortavoher,https://www.coillte.ie/site/gortavoher/,+353(0)61337322,-8.1591147412626,52.4741884483681,Tipperary,,Republic of Ireland,"Bird Watching,Nature and Wildlife,Photography,Learning,Walking,Forest Park,Park and Forest Walk,Natural Landscape"
The Copper Coast UNESCO Global Geopark,http://www.coppercoastgeopark.com,35351292828,-7.36506669999999,52.1422822,Waterford,Knockmahon,Ireland,"Museums and Attraction,Natural Landscape,Tour"
Famine Warhouse 1848,http://heritageireland.ie/visit/places-to-visit/famine-warhouse-1848/,353879089972,-7.52220989999999,52.6193986,Tipperary,Ballingarry,Ireland,"Historic Houses and Castle,Museums and Attraction"
Lislaughtin Franciscan Friary,,353667121288,-9.47861,52.547334,Kerry,Ballylongford,Republic of Ireland,"Church Abbey,Monastery,Churches,Abbeys and Monastery"
Kerry County Museum,http://www.kerrymuseum.ie,353667127777,-9.70615649999999,52.2667701999999,Kerry,Tralee,Ireland,"Learning,Museums and Attraction,Cafe,Food and Drink,Activity Operator,Food Shops,Shopping,Tour"
The Lartigue Monorailway,http://www.lartiguemonorail.com,3536824393,-9.490492,52.44965,Kerry,Listowel,Republic of Ireland,"Transport,Activity Operator,Museums and Attraction,Tour,Coach,Road"
Limerick City Gallery of Art,http://gallery.limerick.ie/,35361310633,-8.6284133,52.6589112,Limerick,,Ireland,"Craft,Shopping,Learning,Art Gallery,Cafe,Food and Drink"
Roscrea Castle and Damer House,https://heritageireland.ie/places-to-visit/roscrea-heritage-centre-roscrea-castle-and-damer-house/,35350521850,-7.79815239999999,52.9551159,Tipperary,Roscrea,Ireland,"Photography,Learning,Historic Houses and Castle,Castle,Gardens,Garden,Museums and Attraction,Tour"
Dunguaire Castle,https://www.dunguairecastle.com/,35361711222,-8.9261281,53.1422901,Galway,,Ireland,"Food and Drink,Restaurant,Historic Houses and Castle,Castle,Activity Operator,Food Shops,Shopping,Tour"
Clonfert Cathedral,http://www.megalithicireland.com/Clonfert%20Cathedral.html,,-8.05836789999999,53.2406886999999,Galway,,Ireland,"Church Abbey,Monastery,Churches,Abbeys and Monastery"
Na Seacht Teampaill,https://www.aranislands.ie/inis-mor-inishmore-island/inis-mor-island-churches-celtic-sites/na-seacht-dteampaill-the-seven-churches,3539961263,-9.7774213,53.1457446999999,Galway,Aran Islands,Ireland,"Church Abbey,Monastery,Churches,Abbeys and Monastery"
Stephen Diggin's Studio Gallery,http://www.stephendigginart.com,353862144965,-7.419204,55.1287959999999,Donegal,Buncrana,Ireland,"Craft,Shopping,Art Gallery"
Glengarriff Woods Nature Reserve,https://www.glengarriffnaturereserve.ie/,3532763636,-9.5662178,51.7546958,Cork,Glengarriff,Ireland,"Bird Watching,Nature and Wildlife,Photography,Learning,Walking,Natural Landscape,Public Park"
The Trinity Tree Dingle,,,-10.271003,52.141565,Kerry,Dingle,Republic of Ireland,Public Sculpture
The Wexford Slobs and Wildfowl Reserve,https://www.wexfordwildfowlreserve.ie,353761002660,-6.4200302,52.3570279,Wexford,,Ireland,"Bird Watching,Nature and Wildlife,Learning,Photography,Forest Park,Park and Forest Walk,Walking,National Park,National and Forest Park,Natural Landscape"
Shelmalier Forth Mountain,,+353(0)539239400,-6.57304928597114,52.3166331143593,Wexford,Barntown,Republic of Ireland,"Forest Park,Park and Forest Walk,Walking,National Park,National and Forest Park,Public Park,Nature and Wildlife"
The Irish Pewtermill Centre,,+353(0)879090044,-6.80946763229371,52.9848887447945,Kildare,Moone,Republic of Ireland,Museums and Attraction
Angela Woulfe Gallery,http://www.angelawoulfegallery.com/,35361310164,-8.6288578,52.6591346,Limerick,,Ireland,"Craft,Shopping,Art Gallery"
Bridge Street Studios,https://www.bridgestreetstudios.com/,353429351712,-6.40287899999999,54.0094618,Louth,Dundalk,Ireland,"Craft,Shopping,Art Gallery"
Greenlane Gallery,https://www.greenlanegallery.com/,353868211225,-10.270908,52.139579,Kerry,Dingle,Ireland,"Craft,Shopping,Learning,Art Gallery,Food Shops"
Pebbles,https://www.lfs.net/pebbles/,3532828165,-9.545538,51.5267892,Cork,Schull,Ireland,"Craft,Shopping,Art Gallery"
Kilcock Art Gallery,https://kilcockartgallery.ie/,353862578283,-6.6682154,53.3998824,Kildare,Kilcock,Ireland,"Craft,Shopping,Shopping Centres and Department Store,Art Gallery,Activity Operator,Tour"
The Warren Gallery,http://www.warren-gallery.com,3532836146,-9.17489609999999,51.528295,Cork,,Ireland,"Craft,Shopping,Art Gallery"
Ballymore Historic Features,http://www.ballymorehistoricfeatures.com,353868246921,-6.374547,52.598346,Wexford,Ballymore,Republic of Ireland,"Museums and Attraction,Tour"
Father Murphy Centre,https://www.facebook.com/Fr-Murphy-Centre-Boolavogue-315611758499163,353539366898,-6.41078079999999,52.5485902,Wexford,Boolavogue,Ireland,Museums and Attraction
Fethard Folk Farm and Transport Museum,http://fethard.com/attra/Museum.html,353526131516,-7.70419179999999,52.4686618,Tipperary,Fethard,Ireland,"Agriculture,Nature and Wildlife,Cycling,Museums and Attraction,Tour"
Baltinglass Abbey,http://visitwicklow.ie/attractions/baltinglass-abbey,,-6.7102325,52.9439747,Wicklow,Baltinglass,Ireland,"Historic Houses and Castle,Church Abbey,Monastery,Churches,Abbeys and Monastery,Ruins"
Christ Church Castlebar,http://www.tuam.anglican.org/aughaval-westport/castlebar-christ-church,,-9.299977,53.854419,Mayo,Castlebar,Republic of Ireland,"Historic Houses and Castle,Church Abbey,Monastery,Churches,Abbeys and Monastery"
Cape Clear Heritage Centre,http://www.capeclearisland.ie/heritageCentre,3532839119,-9.4951214903421,51.4330082748222,Cork,Cape Clear Island,Republic of Ireland,Museums and Attraction
Sligo County Library,https://sligolibrary.ie/,353719111850,-8.47265099999999,54.2727356,Sligo,,Ireland,"Learning,Tracing Your Ancestors,Literary Ireland,Activity Operator"
South Tipperary Genealogy Centre,https://www.bruboru.ie/about-us/genealogy/,3636261122,-7.8884088,52.5212005,Tipperary,Cashel,Ireland,"Tracing Your Ancestors,Museums and Attraction"
Díseart,http://www.diseart.ie,353669152476,-10.270519,52.1418478999999,Kerry,Dingle,Ireland,"Learning,Church Abbey,Monastery,Churches,Abbeys and Monastery,Gardens,Garden"
Ballyhugh Art and Culture Centre Painting,http://homepage.eircom.net/~ballyhugh/art.htm,353499526044,-7.5839647358398,54.1160737914336,Cavan,Ballyconnell,Republic of Ireland,"Craft,Shopping,Learning,Art Gallery,Activity Operator"
Kerry Library,https://www.kerrylibrary.ie/,353667121200,-9.6980208,52.2669381,Kerry,Tralee,Ireland,"Craft,Shopping,Learning,Tracing Your Ancestors,Literary Ireland"
Borris House,http://www.borrishouse.com,353599771884,-6.9289923,52.5988892,Carlow,Borris,Ireland,"Gardens,Garden,Historic Houses and Castle,Museums and Attraction,Food Shops,Shopping,Tour"
Clonmore Castle,"http://www.megalithicireland.com/Clonmore%20Castle,%20Carlow.html",,-6.5751246,52.8282855999999,Carlow,Hacketstown,Ireland,"Castle,Historic Houses and Castle,Ruins"
Killeshin Romanesque Doorway,,353599147838,-6.99780767060849,52.8479394850703,Carlow,Killeshin,Republic of Ireland,"Church Abbey,Monastery,Churches,Abbeys and Monastery"
Ballynacarriga Castle,http://www.castles.ancientireland.org/ballinacarriga/index.htm,353238833226,-9.03164799999999,51.705571,Cork,Bandon,Ireland,"Castle,Historic Houses and Castle"
City Hall Cork,https://www.corkcity.ie/en/,353214966222,-8.464807,51.8965976,Cork,Cork City,Ireland,"Historic Houses and Castle,Venue,Comedy,Music"
Conna Castle,https://www.castles.nl/conna-castle,353862149601,-8.1016545,52.0945204999999,Cork,Conna,Ireland,"Castle,Historic Houses and Castle"
Dún Na Séad Castle,https://www.baltimorecastle.ie/,3532820735,-9.3731024,51.4835712999999,Cork,Baltimore,Ireland,"Historic Houses and Castle,Castle"
Kanturk Castle,https://www.castles.nl/kanturk-castle,353214255100,-8.90272989999999,52.164382,Cork,Banteer,Ireland,"Castle,Historic Houses and Castle"
Kilbolane Castle,https://visitballyhoura.com/explore/kilbolane-castle,3536391300,-8.84686679999999,52.3377251999999,Cork,,Ireland,"Historic Houses and Castle,Castle"
Carrickabraghey Castle,https://www.govisitinishowen.com/directory/carrickabraghy-castle-2,353749363451,-7.3727509,55.3163658,Donegal,,Ireland,"Historic Houses and Castle,Castle,Ruins"
Eighty Two Merrion Square,,+353(0)16761173,-6.251328,53.339313,Dublin,Dublin City Centre,Republic of Ireland,"Castle,Historic Houses and Castle"
Clifden Castle,,3539521163,-10.05673,53.49178,Galway,,Ireland,"Castle,Historic Houses and Castle"
Lynch's Castle,https://thisisgalway.ie/the-history-of-lynchs-castle/,,-9.0522862,53.2731658,Galway,,Ireland,"Castle,Historic Houses and Castle"
Teach Synge - John Millington Synge's Cottage &  Museum,,3539973036,-9.5923818,53.0844699,Galway,,Ireland,Museums and Attraction
Ballycarbery Castle,https://www.theringofkerry.com/ballycarbery-castle,353646631633,-10.2586267,51.9489036,Kerry,Cahersiveen,Ireland,"Castle,Historic Houses and Castle,Ruins"
Cablemaster's Residence,https://atlanticvilla.ie/cablemaster-house,353872225117,-10.289066,51.922393,Kerry,Knightstown,Republic of Ireland,"Castle,Historic Houses and Castle"
Fahan Beehive Huts,http://www.ancientireland.org/fahan,353879254086,-10.421536,52.1016785,Kerry,Fahan,Ireland,"Church Abbey,Monastery,Churches,Abbeys and Monastery"
Parkavonear Castle,http://www.megalithicireland.com/Parkavonear%20Castle.html,353646631633,-9.5550062,52.0759354,Kerry,,Ireland,"Castle,Historic Houses and Castle"
Tarbert House,http://www.kerrytourism.tarbert.ie/things-to-do/visit-tarbert-house,3536836198,-9.3689933,52.5796639,Kerry,Tarbert,Ireland,Historic Houses and Castle
Harristown House,https://www.harristownhouse.ie,35345483614,-6.6914209,53.1317192,Kildare,,Ireland,"Historic Houses and Castle,Tour"
Kilteel Castle,http://www.megalithicireland.com/Kilteel%20Castle.html,35345521240,-6.5274876,53.2326787,Kildare,,Ireland,"Castle,Historic Houses and Castle,Ruins"
Maynooth Ecclesiastical Museum,http://museum.maynoothcollege.ie,353879152003,-6.5981017,53.3786105999999,Kildare,Maynooth,Ireland,Museums and Attraction
Granagh Castle,https://visionsofthepastblog.com/2017/08/09/granagh-castle-kilkenny-ireland,,-7.16274,52.2825099999999,Kilkenny,,Ireland,"Castle,Historic Houses and Castle"
Edmund Rice Heritage Centre,http://edmundrice.net/edmund-rice/heritage-centres#westcourt-callan,353567725993,-7.398617,52.5525655999999,Kilkenny,,Ireland,"Historic Houses and Castle,Museums and Attraction"
Stradbally Hall and Demesne,https://www.stradballyhall.ie/history,353868240238,-7.15554599999999,53.0106018,Laois,Stradbally,Ireland,"Fishing,Angling,Photography,Learning,Activity Operator,Historic Houses and Castle,Venue,Music,Tour"
Trinitarian Monastery,https://www.adareparish.ie/our-parish/virtual-tour-2/,35361396172,-8.7890832,52.564815,Limerick,Adare,Ireland,"Historic Houses and Castle,Church Abbey,Monastery,Churches,Abbeys and Monastery"
Magdalene Tower,http://www.drogheda.ie,+353(0)419837070,-6.351512,53.718285,Louth,Drogheda,Republic of Ireland,"Photography,Learning,Walking,Historic Houses and Castle,Church Abbey,Monastery,Churches,Abbeys and Monastery,Ruins"
Old Coastguard Station,http://www.jamescahill.com/coastguardstation.html,353949025500,-9.62084769999999,53.8213182999999,Mayo,,Ireland,Historic Houses and Castle
Partry House,http://www.museumsofmayo.com/partry.htm,353949543004,-9.2625359,53.6685245,Mayo,Partry,Ireland,"Historic Houses and Castle,Tour"
Rockfleet Castle,https://www.destinationwestport.com/directory/rockfleet-castle,3539825711,-9.6270894,53.8960284,Mayo,,Ireland,"Castle,Historic Houses and Castle"
Dardistown Castle,http://www.dardistowncastle.ie,353419829239,-6.3136965,53.6645112,Meath,Julianstown,Ireland,"Photography,Learning,Historic Houses and Castle,Castle,Tour"
Dunmoe Castle,http://www.navanhistory.ie/index.php?page=dunmoe-castle-2,353874555364,-6.6373308,53.6739901,Meath,,Ireland,"Church Abbey,Monastery,Churches,Abbeys and Monastery"
Moygara Castle,http://www.loughgaralakesandlegends.ie/lough-gara/moygara-castle,353719160201,-8.47519039999999,53.9718301,Sligo,,Ireland,"Castle,Historic Houses and Castle"
Ballynahow Castle,http://irishantiquities.bravehost.com/tipperary/ballynahow/ballynahow.html,,-7.8785802,52.6930716,Tipperary,,Ireland,"Castle,Historic Houses and Castle"
Killaghy Castle,http://www.castlesinireland.com/castle-in-tipperary-killaghy-castle-tipperary,,-7.51441629999999,52.5172294,Tipperary,Mullinahone,Ireland,"Castle,Historic Houses and Castle"
Redwood Castle,http://www.redwoodcastleireland.com,353949021375,-8.10585,53.138996,Tipperary,Lorrha,Ireland,"Photography,Learning,Historic Houses and Castle,Castle,Tour"
Ballysaggartmore Towers,https://www.theirishplace.com/heritage/history-ballysaggartmore-towers,,-7.9631741,52.1472156,Waterford,,Ireland,"Walking,Historic Houses and Castle,Castle,Ruins"
Ferns Cathedral,https://www.archaeology.ie/monument-of-the-month/archive/ferns-co-wexford,,-6.4926135,52.5899833,Wexford,,Ireland,"Church Abbey,Monastery,Churches,Abbeys and Monastery"
The Browne Clayton Monument,https://www.igs.ie/conservation/project/browne-clayton-monument,353539196267,-6.8049493,52.3599232,Wexford,,Ireland,Public Sculpture
Altidore Castle,https://www.ihh.ie/index.cfm/houses/house/name/Altidore%20Castle,353877601369,-6.13811729999999,53.1106151,Wicklow,,Ireland,"Historic Houses and Castle,Castle,Museums and Attraction,Tour"
The Barony Of Erris Birdwatching,https://www.mayo-ireland.ie/en/towns-villages/bangor/bangor-activities-birdwatching.html,+353(0)9782292,-9.99073301891792,54.2237204010126,Mayo,,Republic of Ireland,"Bird Watching,Nature and Wildlife,Natural Landscape"
Millstreet Museum,http://www.millstreet.ie/blog/tag/millstreet-museum,3532970844,-9.067209,52.059733,Cork,Millstreet,Republic of Ireland,"Learning,Museums and Attraction"
Cobh Museum,http://www.cobhmuseum.com,353214814240,-8.29943589999999,51.8493205,Cork,Kilgarvan,Ireland,"Tracing Your Ancestors,Historic Houses and Castle,Museums and Attraction"
James Mitchell Museum,https://www.nuigalway.ie/visitorsgeologymuseum,35391492126,-9.060126,53.278255,Galway,Galway City,Republic of Ireland,Museums and Attraction
Músaem Chorca Dhuibhne - Corca Dhuibhne Regional Museum,http://www.westkerrymuseum.com,353669156333,-10.406184,52.166482,Kerry,Tralee,Republic of Ireland,"Museums and Attraction,Cafe,Food and Drink,Food Shops,Shopping,Tour"
Kerry Bog Village Museum,http://www.kerrybogvillage.ie,353669769184,-9.8819646,52.0739333,Kerry,,Ireland,"Restaurant,Museums and Attraction,Natural Landscape,Food and Drink,Pubs and Bar,Activity Operator,Food Shops,Shopping,Tour"
Tarbert Bridewell Courthouse & Jail Museum,http://www.tarbertbridewell.com,3536836500,-9.3764602,52.573661,Kerry,Tarbert,Ireland,"Photography,Learning,Historic Houses and Castle,Museums and Attraction,Cafe,Food and Drink,Food Shops,Shopping"
Irish Palatine Heritage Museum,http://www.irishpalatines.org,3536963511,-8.94427069999999,52.525501,Limerick,Rathkeale,Ireland,"Museums and Attraction,Cafe,Food and Drink,Food Shops,Shopping,Tour"
Limerick City Museum,https://www.limerick.ie/limerick-museum,35361557740,-8.6287673,52.6639172,Limerick,,Ireland,"Learning,Museums and Attraction,Tour"
Waterloo Round Tower,http://www.irishstones.org/place.aspx?p=1232,,-8.573712,51.954691,Cork,Blarney,Republic of Ireland,Historic Houses and Castle
The Water Wheels,https://www.govisitdonegal.com/things-to-do/activities/the-water-wheels,353719851580,-8.19993,54.508857,Donegal,Ballyshannon,Republic of Ireland,Museums and Attraction
Punchestown Standing Stone,http://www.kildare.ie/kildareheritage,35345521240,-6.6289596,53.1911515,Kildare,,Ireland,"Photography,Learning,Public Sculpture"
Leac an Scail  - Kilmogue dolmen - Harristown Dolmen,http://www.megalithicireland.com/Kilmogue%20Dolmen.htm,,-7.261723,52.402923,Kilkenny,Knocktopher,Republic of Ireland,"Church Abbey,Monastery,Churches,Abbeys and Monastery"
The Battle of Aughrim Visitor Centre,https://heritage.galwaycommunityheritage.org/content/category/places/battle-of-aughrim-visitor-centre,353909673939,-8.318517,53.302695,Galway,Aughrim,Republic of Ireland,"Museums and Attraction,Cafe,Food and Drink"
Carrowtemple,http://www.earlychristianireland.net/Counties/sligo/carrowtemple,353719161201,-8.51781723871875,53.9843310127798,Sligo,Gurteen,Republic of Ireland,"Church Abbey,Monastery,Churches,Abbeys and Monastery"
Clogher Castle,https://www.cloghancastle.ie,353719161201,-8.51182,53.9373,Sligo,Monasteraden,Republic of Ireland,"Castle,Historic Houses and Castle"
Culleenamore Middens,http://www.carrowkeel.com/sites/coolrea/culleenamore.html,,-8.6092376,54.260578,Sligo,Strandhill,Ireland,"Church Abbey,Monastery,Churches,Abbeys and Monastery"
Cashel Heritage Centre,https://www.cashel.ie/cashel-heritage-centre/,3536261333,-7.8876149,52.5169758,Tipperary,Cashel,Ireland,Museums and Attraction
Saint Marys Church Of Ireland,https://www.ireland.anglican.org/find-a-church/parish/15860/carlow-st-mary-carlow,353599132565,-6.9331429,52.8369396999999,Carlow,,Ireland,"Church Abbey,Monastery,Churches,Abbeys and Monastery"
Church of the Resurrection Blarney,https://cupcork.ie/,353214877260,-8.56858759999999,51.9336175,Cork,Blarney,Ireland,"Historic Houses and Castle,Church Abbey,Monastery,Churches,Abbeys and Monastery"
Saint Colman's Cathedral,https://cobhcathedralparish.ie,353214813222,-8.2936865,51.8514618,Cork,Kilgarvan,Ireland,"Historic Houses and Castle,Church Abbey,Monastery,Churches,Abbeys and Monastery"
St. Luke's Church,http://www.liveatstlukes.com/,,-8.457078,51.904255,Cork,Cork City,Republic of Ireland,"Church Abbey,Monastery,Churches,Abbeys and Monastery,Venue,Music"
Tullylease Church And Cross Slabs,http://www.irishstones.org/place.aspx?p=861&i=12,,-8.9402469,52.316655,Cork,Tullylease,Ireland,"Church Abbey,Monastery,Churches,Abbeys and Monastery"
Dún An Óir,"http://www.megalithicireland.com/Dun%20an%20Oir,%20Smerwick.html",,-10.4149455,52.1901965,Kerry,Smerwick,Ireland,"Church Abbey,Monastery,Churches,Abbeys and Monastery"
Kilmalkedar Church,https://dingle-peninsula.ie/component/zoo/item/kilmalkedar-church.html,,-10.338878,52.185292,Kerry,Ballydavid,Republic of Ireland,"Church Abbey,Monastery,Churches,Abbeys and Monastery"
Augustinian Abbey Adare,http://www.ireland.anglican.org,35361396227,-8.784585,52.567928,Limerick,Adare,Republic of Ireland,"Historic Houses and Castle,Church Abbey,Monastery,Churches,Abbeys and Monastery"
Killary Monastic Site,,,-6.546373,53.707926,Meath,Slane,Republic of Ireland,"Church Abbey,Monastery,Churches,Abbeys and Monastery"
West Gate Heritage Tower,http://wexfordhub.com/history/westgate-tower,353539146506,-6.466286,52.341426,Wexford,,Republic of Ireland,Museums and Attraction
Holy Trinity Church,https://www.buildingsofireland.ie/buildings-search/building/22110009/holy-trinity-church-catholic-main-street-fethard-fethard-tipperary-south,353862750735,-7.6949615,52.4656284,Tipperary,Fethard,Ireland,"Photography,Learning,Historic Houses and Castle,Church Abbey,Monastery,Churches,Abbeys and Monastery"
Kilcooley Abbey,"http://www.megalithicireland.com/Kilcooley%20Abbey,%20Tipperary.html",,-7.5713094,52.6707686,Tipperary,,Ireland,"Church Abbey,Monastery,Churches,Abbeys and Monastery"
Slieveardagh Heritage Centre,http://www.slieveardagh.com/business/slieveardagh-enterprise-centre,353529156165,-7.6701522,52.5685577,Tipperary,Killenaule,Ireland,"Learning,Historic Houses and Castle,Church Abbey,Monastery,Churches,Abbeys and Monastery,Museums and Attraction"
Rattoo Round Tower,https://www.gokerry.ie/rattoo-round-tower/,,-9.65019399999999,52.4426651,Kerry,,Ireland,"Church Abbey,Monastery,Churches,Abbeys and Monastery"
The Russell Gallery,http://www.russellgallery.net,353657078185,-9.08283,53.15452,Clare,,Ireland,"Craft,Shopping,Shopping Centres and Department Store,Art Gallery,Cafe,Food and Drink,Food Shops"
Vincent Hyland Art Gallery,https://www.vincenthylandartist.com/,353831992560,-10.106873,51.754406,Kerry,Caherdaniel,Ireland,"Craft,Shopping,Photography,Learning,Art Gallery"
Ballynahinch Castle Hotel and Gardens,https://www.ballynahinch-castle.com/,3539531006,-9.86296099999999,53.460188,Galway,Recess,Ireland,"Restaurant,Walking,Castle,Historic Houses and Castle,Gardens,Garden,Food and Drink,Tour"
Cashel House Hotel Gardens,https://cashelhouse.ie/cms/gardens/,3539531001,-9.8079229,53.4196460999999,Galway,Cashel,Ireland,"Gardening,Nature and Wildlife,Photography,Learning,Walking,Gardens,Garden,Food and Drink,Restaurant"
Scattery Island,http://www.heritageireland.ie/en/shannon-region/scatteryislandcentre/,+353(0)656828366,-9.5194555,52.6121983,Clare,Scattery Island,Ireland,"Walking,Church Abbey,Monastery,Churches,Abbeys and Monastery,Island,Offshore Island,Museums and Attraction,Ruins,Historic Houses and Castle"
Bere Island,http://www.bereisland.net,+353(0)2775099,-9.86344539008676,51.6304715371706,Cork,,Republic of Ireland,"Bird Watching,Nature and Wildlife,Cycling,Fishing,Angling,Sailing,Activity Operator,Swimming,Swimming Pools and Water Park,Venue,Walking,Island,Offshore Island,Natural Landscape"
Sherkin Island,http://www.sherkinisland.ie,,-9.41653465109219,51.469523356434,Cork,Sherkin Island,Republic of Ireland,"Craft,Shopping,Bird Watching,Nature and Wildlife,Cycling,Fishing,Angling,Sailing,Activity Operator,Swimming,Swimming Pools and Water Park,Venue,Walking,Island,Offshore Island,Natural Landscape,Food and Drink,Pubs and Bar"
Stronach Gallery,http://www.stronachgallery.com/,353876666633,-9.823556,54.024536,Mayo,Ballycroy,Ireland,"Craft,Shopping,Art Gallery"
O'Driscoll Garden Centre,https://www.facebook.com/ODriscoll-Garden-Centre-449803402105043/,35350421636,-7.7973804,52.6702947,Tipperary,,Ireland,"Gardening,Nature and Wildlife,Gardens,Garden"
Lahinch Art Gallery,http://www.lahinchartgallery.com,353657081400,-9.3457486,52.9317892,Clare,Lahinch,Ireland,"Craft,Shopping,Shopping Centres and Department Store,Art Gallery,Food Shops"
"Cathedral of the Most Holy Trinity, Waterford",http://www.waterford-cathedral.com/,35351875166,-7.11117209999999,52.2615066,Waterford,,Ireland,"Historic Houses and Castle,Church Abbey,Monastery,Churches,Abbeys and Monastery,Venue,Music"
Pebble Stone Studio,https://rosemarielangtry.com/,353863934603,-7.84840409999999,53.3496391,Westmeath,,Ireland,"Craft,Shopping,Learning,Art Gallery,Activity Operator"
Michael Cusack Centre,http://michaelcusack.ie/,353657089944,-9.0857179,53.0190537,Clare,,Ireland,"Gaa,Learning,Museums and Attraction,Cafe,Food and Drink,Tour"
Youghal Heritage Centre,https://youghal.ie/organisation/youghal-heritage-centre/,3532420170,-7.845717,51.953087,Cork,Youghal,Republic of Ireland,"Museums and Attraction,Food Shops,Shopping"
Tech Amergin,http://www.techamergin.com,353669478956,-10.172331,51.8295849999999,Kerry,Waterville,Ireland,"Craft,Shopping,Learning,Movies,Cinema,Venue,Art Gallery"
St. Crónáns High Cross at Black Mills,https://tipperary.com/listings/st-cronans-high-cross-at-black-mills/,35350521850,-7.79571939999999,52.9554436,Tipperary,,Ireland,"Historic Houses and Castle,Church Abbey,Monastery,Churches,Abbeys and Monastery,Public Sculpture,Ruins"
Valentia Island Heritage Centre,http://www.vhc.cablehistory.org,353669476411,-10.294597,51.925531,Kerry,,Ireland,"Tracing Your Ancestors,Museums and Attraction,Food Shops,Shopping"
Killoughternane,,,-6.82471115309872,52.6628559636995,Carlow,Bagenalstown,Republic of Ireland,"Church Abbey,Monastery,Churches,Abbeys and Monastery,Ruins,Historic Houses and Castle"
St Johns Priory,,353567751500,-7.24848918846896,52.6536826430907,Kilkenny,Kilkenny City,Republic of Ireland,"Church Abbey,Monastery,Churches,Abbeys and Monastery"
Saint Marys Cathedral,https://www.stmaryscathedral.ie/,353567771253,-7.2570566,52.6523483,Kilkenny,,Ireland,"Historic Houses and Castle,Church Abbey,Monastery,Churches,Abbeys and Monastery,Food Shops,Shopping"
"Old St Mary's Church, Clonmel",https://www.stmarysparishclonmel.ie/,3530526122773,-7.7053964,52.3543347,Tipperary,Oldbridge,Ireland,"Church Abbey,Monastery,Churches,Abbeys and Monastery"
Stradbally Medieval Church,,3535841741,-7.46079348745372,52.130433870236,Waterford,Stradbally,Ireland,"Church Abbey,Monastery,Churches,Abbeys and Monastery"
Kilree High Cross,http://www.megalithicireland.com/High%20Cross%20Kilree.htm,,-7.26955399999999,52.5181956,Kilkenny,,Ireland,"Church Abbey,Monastery,Churches,Abbeys and Monastery"
Kilkieran High Cross,http://www.megalithicireland.com/High%20Cross%20Kilkieran.htm,353567751500,-7.3808278,52.39794,Kilkenny,,Ireland,"Church Abbey,Monastery,Churches,Abbeys and Monastery"
St. Patrick's Well Cross,,,-7.39327656445311,52.4160710356843,Tipperary,Ahenny,Ireland,"Church Abbey,Monastery,Churches,Abbeys and Monastery"
Dunloe Castle,https://killarney.ie/listing/dunloe-castle,353646631633,-9.627419,52.059671,Kerry,Beaufort,Republic of Ireland,"Castle,Historic Houses and Castle"
Firkin Crane Dance Centre,https://www.firkincrane.ie/ ,353214507487,-8.4763208,51.9026986999999,Cork,,Ireland,"Learning,Historic Houses and Castle"
County Carlow Military Museum,https://www.facebook.com/carlowmilitarymuseum,353876904242,-6.928629,52.8433935,Carlow,,Ireland,"Learning,Museums and Attraction"
Cork City Library,http://www.corkcitylibraries.ie,353214924900,-8.475332,51.896731,Cork,Cork City,Republic of Ireland,"Learning,Literary Ireland"
Killarney Art Gallery,http://www.killarneyartgallery.com/,353872767999,-9.5091062,52.0588637,Kerry,Killarney,Ireland,"Craft,Shopping,Art Gallery"
St. Finbarr's South Church,https://www.facebook.com/pages/category/Catholic-Church/St-Finbarrs-South-Church-577874335698942/,353851471147,-8.4714612,51.8942511,Cork,Cork City,Ireland,"Tracing Your Ancestors,Historic Houses and Castle,Church Abbey,Monastery,Churches,Abbeys and Monastery"
St Joseph's Redemptorist Church,https://www.redemptoristsdundalk.ie,353429334042,-6.3895579,54.0042289,Louth,Dundalk,Ireland,"Photography,Learning,Historic Houses and Castle,Church Abbey,Monastery,Churches,Abbeys and Monastery"
Regional Cultural Centre,https://regionalculturalcentre.com/,353749129186,-7.7320196,54.9538874,Donegal,Letterkenny,Ireland,"Craft,Shopping,Movies,Cinema,Venue,Art Gallery,Music"
Clogher Heritage Complex,http://www.museumsofmayo.com/clogher-heritage-centre/clogher-heritage-centre.html,353949030687,-9.2465285,53.7633927,Mayo,,Ireland,"Walking,Museums and Attraction,Activity Operator,Tour"
Working Artist Studios,https://www.workingartiststudios.com/,353861628471,-9.4614566,51.5627244999999,Cork,Ballydehob,Ireland,"Craft,Shopping,Learning,Art Gallery"
St Mary's Garden of Remembrance,http://www.irishwarmemorials.ie/Memorials-Detail?memoId=560,353761065000,-7.80462829999999,52.6807258,Tipperary,Thurles,Ireland,"Church Abbey,Monastery,Churches,Abbeys and Monastery,Public Park,Nature and Wildlife,Public Sculpture"
St. Laurence's Gate - Drogheda Walls,http://www.discoverboynevalley.ie/boyne-valley-drive/heritage-sites/st-laurences-gate-drogheda-walls,353419872843,-6.347102,53.71591,Louth,Drogheda,Republic of Ireland,"Photography,Learning,Historic Houses and Castle"
The National Design & Craft Gallery,https://www.ndcg.ie/,353567796147,-7.25007859999999,52.6493621,Kilkenny,,Ireland,"Craft,Shopping,Learning,Art Gallery,Cafe,Food and Drink"
Jane Hilliard Gallery,http://www.janehilliard.com/,353861504030,-9.707763,52.2693541,Kerry,Tralee,Ireland,"Craft,Shopping,Art Gallery"
Mossfield Organic Farm,http://www.mossfield.ie,353579131002,-7.8005629,53.060734,Offaly,,Ireland,Visitor Farm
Annemarie Bourke Studio Gallery,https://www.annemariebourke.com/,35361410510,-8.6296155,52.6613859,Limerick,,Ireland,"Craft,Shopping,Learning,Art Gallery"
Herb Garden at Kilgraney House,http://kilgraneyhouse.com/,353599775283,-6.95819999999999,52.6538339,Carlow,,Ireland,"Gardens,Garden,Food Shops,Shopping"
Garryhill House,https://www.buildingsofireland.ie/buildings-search/building/10301651/garryhill-house-garryhill-county-carlow,353599727240,-6.848067,52.678048,Carlow,Bagenalstown,Republic of Ireland,"Castle,Historic Houses and Castle"
Pure Skill,https://www.pureskill.ie,35391515510,-9.10056949999999,53.2711069999999,Galway,,Ireland,"Gaa,Activity Operator"
The Arranmore Ferry,https://thearranmoreferry.com/,353873171810,-8.4423411,54.9831269999999,Donegal,Burtonport,Ireland,"Transport,Activity Operator,Embarkation Point,Island,Offshore Island,Boat,Tour,Coach,Road"
St Iberius Church,,,-6.46214239999999,52.3391990999999,Wexford,,Ireland,"Church Abbey,Monastery,Churches,Abbeys and Monastery"
Belcarra Eviction Cottage,http://www.museumsofmayo.com/eviction-cottage/eviction-cottage-belcarra.html,353879090046,-9.2190281,53.8129006,Mayo,Castlebar,Ireland,"Learning,Museums and Attraction,Tour"
"St Peter's Roman Catholic Church, Drogheda",http://www.saintpetersdrogheda.ie,353419838536,-6.3533726,53.7150105,Louth,Drogheda,Ireland,"Photography,Learning,Historic Houses and Castle,Church Abbey,Monastery,Churches,Abbeys and Monastery"
Castle Leslie Estate,https://www.castleleslie.com/activities/,3534788100,-6.893738,54.318282,Monaghan,Glaslough,Ireland,"Falconry,Nature and Wildlife,Fishing,Angling,Horse Riding,Equestrian,Pampering,Health Farm,Spa and Wellness,Specialised Retreat,Walking,Castle,Historic Houses and Castle,Gardens,Garden,Food and Drink,Restaurant,Activity Operator"
Lettermullen & Garumna Heritage Centre,https://www.xn--cuigal-eva.ie/about,35391551744,-9.73240906606963,53.2432360359837,Galway,Lettermullen Island,Republic of Ireland,"Tracing Your Ancestors,Museums and Attraction"
Marlfield House & Gardens,https://www.marlfieldhouse.com/,353539421124,-6.27521099999999,52.668747,Wexford,Gorey,Ireland,"Walking,Gardens,Garden"
The Spanish Arch,,,-9.0540754,53.2697482,Galway,,Ireland,Museums and Attraction
National University of Ireland Galway,https://www.nuigalway.ie/events/,35391492264,-9.0617372,53.2791548999999,Galway,,Ireland,"Restaurant,Learning,Literary Ireland,Food and Drink,Pubs and Bar"
The Carol Cronin Gallery,https://carolcronin.com/,353861031074,-10.269942,52.141735,Kerry,Dingle,Ireland,"Craft,Shopping,Art Gallery"
The Lace Gallery,http://www.thelacegallery.com,353599155676,-6.7364351,52.7535167,Carlow,,Ireland,"Craft,Shopping,Shopping Centres and Department Store,Art Gallery,Food Shops"
Nowlan Park  Gaelic Stadium,http://www.kilkennygaa.ie,,-7.238554,52.656856,Kilkenny,Kilkenny City,Republic of Ireland,"Gaa,Activity Operator,Stadium,Sports Venue,Venue,Sports Venues"
The Narrow Space Gallery,https://thenarrowspace.com/,353876799361,-7.7010266,52.3530531,Tipperary,Oldbridge,Ireland,"Craft,Shopping,Shopping Centres and Department Store,Art Gallery,Food Shops"
Oranmore Castle,http://www.oranmorecastle.com,353866003160,-8.9346103,53.2682869,Galway,Oranmore,Ireland,"Castle,Historic Houses and Castle,Venue,Music,Tour"
Greenacres Art Centre,https://www.greenacres.ie/the-gallery/,353539122975,-6.4640300932541,52.3414347677529,Wexford,Wexford Town,Republic of Ireland,"Craft,Shopping,Art Gallery,Venue,Comedy,Music,Activity Operator"
Killagholehane Cemetery and Church,https://www.limerick.ie/discover/eat-see-do/history-heritage/churches-settlements/killagholehane-cemetery-and-church-ruin,35361396255,-8.979017,52.331277,Limerick,Broadford,Republic of Ireland,"Church Abbey,Monastery,Churches,Abbeys and Monastery"
Cappoquin House,https://www.cappoquinhouseandgardens.com,353876704180,-7.8503399,52.1494507,Waterford,Cappoquin,Ireland,"Walking,Historic Houses and Castle,Gardens,Garden,Tour"
The Dunamaise Arts Centre,https://www.dunamaise.ie/,353578663355,-7.29998339999999,53.0343718,Laois,Portlaoise,Ireland,"Craft,Shopping,Movies,Cinema,Venue,Art Gallery,Comedy,Music"
Cill Rialaig Arts Centre,https://cillrialaigartscentre.com,353669479277,-10.266434,51.832582,Kerry,Ballinskelligs,Ireland,"Craft,Shopping,Art Gallery,Cafe,Food and Drink,Food Shops"
Hennigan's Heritage Centre,http://hennigansheritage.com/,353872491402,-8.98737349999999,53.9742533999999,Mayo,,Ireland,"Museums and Attraction,Visitor Farm,Tour"
Fairbrook House Garden and Museum,https://www.fairbrook-housegarden.com/,35351384657,-7.2636416,52.2397242,Waterford,,Ireland,"Gardening,Nature and Wildlife,Historic Houses and Castle,Art Gallery,Gardens,Garden,Museums and Attraction,Cafe,Food and Drink,Tour"
Kinsale Museum,https://www.kinsale.ie/2010/06/11/regional-museum/,353214777930,-8.5242949,51.7062716999999,Cork,Kinsale,Ireland,"Learning,Historic Houses and Castle,Museums and Attraction"
Blarney House and Gardens,https://blarneycastle.ie/,353214385252,-8.5707144,51.9291159,Cork,Blarney,Ireland,"Historic Houses and Castle,Gardens,Garden,Cafe,Food and Drink,Tour"
Thomond Park,http://www.thomondpark.ie,35361421109,-8.642519,52.6742164,Limerick,,Ireland,"Museums and Attraction,Stadium,Sports Venue,Venue,Sports Venues,Cafe,Food and Drink,Pubs and Bar,Food Shops,Shopping,Tour"
The Bishop’s Palace Museum,http://www.waterfordtreasures.com/bishops-palace,35351304500,-7.10765179999999,52.2595399,Waterford,,Ireland,"Historic Houses and Castle,Museums and Attraction,Cafe,Food and Drink,Tour"
Springmount Garden Centre,https://www.springmount.ie/,353539421368,-6.307027,52.628776,Wexford,Gorey,Ireland,"Gardening,Nature and Wildlife,Gardens,Garden,Cafe,Food and Drink"
Bainnlann Chul na nGabhar Art Gallery,https://www.facebook.com/bainnlann/,3535841933,-7.62477209999999,52.0897541999999,Waterford,Dungarvan,Ireland,"Craft,Shopping,Art Gallery"
Inis Bó Finne (Inishbofin Island) - Donegal,http://www.donegalislands.com,+353(0)749135635,-8.17062392055663,55.167805803353,Donegal,,Ireland,"Bird Watching,Nature and Wildlife,Kayaking,Activity Operator,Kitesurfing,Windsurfing,Walking,Beach,Island,Offshore Island,Natural Landscape"
The Donegal Gaeltacht,,,-8.1107141,54.654487,Donegal,Glencolmcille,Ireland,Natural Landscape
Sean Burns Gallery,http://www.seanburnsdesign.blogspot.com,+353(0)949372626,-8.996791,53.712736,Mayo,Claremorris,Ireland,"Craft,Shopping,Art Gallery"
Inishbofin Heritage Museum & Gift Shop,https://www.facebook.com/InishbofinHeritageMuseum,353879696732,-10.206749,53.613395,Galway,Inishbofin,Ireland,Museums and Attraction
Curragh Military Museum,https://www.military.ie/en/public-information/defence-forces-museums/the-curragh-museum,35345445342,-6.8309714,53.1458507,Kildare,,Ireland,"Learning,Photography,Museums and Attraction,Tour"
The Hamilton Gallery,https://hamiltongallery.ie/,353719143686,-8.47239424040606,54.2705261165701,Sligo,,Ireland,"Craft,Shopping,Art Gallery"
Peter Cox Photography Gallery,http://www.petercox.ie/,353646686076,-9.5085599,52.0586039,Kerry,Killarney,Ireland,"Craft,Shopping,Photography,Learning,Art Gallery"
Ballymurrin Quaker Farmstead,http://www.ballymurrinquakerfarmstead.eu,35340448206,-6.1066529,52.9341601,Wicklow,,Ireland,"Agriculture,Nature and Wildlife,Historic Houses and Castle,Museums and Attraction"
Elphin Windmill,https://elphinwindmill.ie/,353834062113,-8.21565949999999,53.8599595999999,Roscommon,Elphin,Ireland,Museums and Attraction
The House of Waterford Crystal,https://www.waterfordvisitorcentre.com/,35351317000,-7.1067612,52.2592684,Waterford,,Ireland,"Craft,Shopping,Learning,Shopping Centres and Department Store,Museums and Attraction,Cafe,Food and Drink,Food Shops,Tour"
North Mayo Family Research Centre,http://www.northmayogenealogy.com/,3539631809,-9.3114016,54.0704964999999,Mayo,Ballina,Ireland,"Tracing Your Ancestors,Gardens,Garden,Museums and Attraction,Cafe,Food and Drink"
Blue Egg Gallery,https://www.facebook.com/blueegggallery/,353539145862,-6.4646946,52.3393084,Wexford,,Ireland,"Craft,Shopping,Shopping Centres and Department Store,Art Gallery,Food Shops"
The Pavilion Garden Centre,https://www.thepavilion.ie/,353214888134,-8.463893,51.826548,Cork,Ballygarvan,Ireland,"Gardening,Nature and Wildlife,Gardens,Garden,Cafe,Food and Drink"
West Cork Crafts,https://www.westcorkcrafts.ie/,353838954823,-9.2680878,51.5492652,Cork,Skibbereen,Ireland,"Craft,Shopping,Shopping Centres and Department Store,Art Gallery,Food Shops"
The Gallery Kinsale,http://thegallerykinsale.com/,353868448589,-8.5226584,51.7049884999999,Cork,Kinsale,Ireland,"Craft,Shopping,Art Gallery,Food Shops"
St Aidan's Cathedral,https://www.staidanscathedral.ie/,353539235777,-6.5709015,52.5028662,Wexford,Enniscorthy,Ireland,"Historic Houses and Castle,Church Abbey,Monastery,Churches,Abbeys and Monastery"
Great Sugar Loaf Mountain,http://www.visitwicklow.ie,,-6.151,53.152,Wicklow,Kilmacanogue,Ireland,"Walking,Natural Landscape"
The Back Lane Pop Up Gallery,http://thebacklanegallery.blogspot.com/,353873212948,-9.5062927,52.0589956,Kerry,Killarney,Ireland,"Craft,Shopping,Art Gallery"
Skryne Church,https://www.skryneandrathfeighparish.ie/,3530469025152,-6.56310879999999,53.5859852,Meath,Skreen,Ireland,"Church Abbey,Monastery,Churches,Abbeys and Monastery"
Donaghpatrick Church,http://www.discoverboynevalley.ie/boyne-valley-drive/heritage-sites/donaghpatrick-church,,-6.75954919999999,53.6965617,Meath,,Ireland,"Church Abbey,Monastery,Churches,Abbeys and Monastery"
Patrickstown Viewing Point,,,-7.085113,53.74976,Meath,Oldcastle,Ireland,Natural Landscape
Avoca Studio Gallery,https://avocagallery.com/welcome-to-the-avoca-painting-school/,35340235555,-6.2272958,52.8800149,Wicklow,,Ireland,"Craft,Shopping,Art Gallery"
Brideweir Hous,https://www.brideweir.ie,3532536386,-8.1550475,52.0869699,Cork,Conna,Ireland,"Castle,Historic Houses and Castle"
Drishane House,https://drishane.com,3532836126,-9.1811823,51.5261146,Cork,Drishane,Ireland,"Historic Houses and Castle,Gardens,Garden,Museums and Attraction"
Woodford Bourne Warehouse,http://www.woodfordbournewarehouse.com,353214273000,-8.4813349,51.8982822,Cork,,Ireland,"Historic Houses and Castle,Food and Drink,Pubs and Bar"
Vanda Art Gallery,http://www.vandaluddy.com,353872855705,-9.052645,53.273518,Galway,,Ireland,"Craft,Shopping,Art Gallery"
Secret Gardens Sligo,https://www.secretgardensofsligo.com/gardens,353863375741,-8.47608643854607,54.2764192895825,Sligo,Sligo Town,Ireland,"Gardening,Nature and Wildlife,Gardens,Garden"
"The Glen, Strandhill",,,-8.58085464301154,54.2610508211186,Sligo,Strandhill,Ireland,Natural Landscape
Aine Dunne - Fine Art Tapestry Weaver,http://www.ainedunneweaver.com,353879112502,-6.35127699999999,53.7621139999999,Louth,Drogheda,Ireland,"Craft,Shopping,Learning,Art Gallery,Activity Operator"
Ballyshannon and District Museum,https://www.facebook.com/Ballyshannonmuseum,353876888789,-8.1894979,54.5011941,Donegal,Ballyshannon,Ireland,Museums and Attraction
Árainn - Inis Mór (Inishmore),,,-9.7315917,53.1280443,Galway,,Ireland,"Restaurant,Bird Watching,Nature and Wildlife,Cycling,Shopping,Shopping Centres and Department Store,Swimming,Swimming Pools and Water Park,Venue,Walking,Island,Offshore Island,Local Produce,Food and Drink,Pubs and Bar"
Cé Mhachaire Uí Rabhartaigh  (Min Larach Harbour),,,-8.1746006,55.146192,Donegal,,Ireland,Embarkation Point
Cé an Bhuna Bhig (Bunbeg Harbour),,,-8.3093977,55.057756,Donegal,Bunbeg,Ireland,Embarkation Point
Cé Ailt an Chorráin (Burtonport Harbour),,,-8.4413892,54.983318,Donegal,Burtonport,Ireland,Embarkation Point
Roonagh Pier,,+353(0)9825711,-9.9038798,53.761692,Mayo,Louisburgh,Ireland,Embarkation Point
Calafort Ros an Mhíl (Rossaveel Harbour),,,-9.5618847,53.265879,Galway,Rossaveal,Ireland,Embarkation Point
Doolin Pier,,,-9.4045007,53.015342,Clare,Doolin,Ireland,Embarkation Point
Cé Dhún Chaoin (Dunquin Pier),,,-10.4606725,52.1243059,Kerry,,Ireland,Embarkation Point
Cuan an Daingin (Dingle Harbour),,,-10.278091,52.139049,Kerry,Dingle,Ireland,Embarkation Point
Portmagee Harbour,,,-10.365681,51.886058,Kerry,Portmagee,Ireland,"Embarkation Point,Boat,Tour"
Castletownbere Harbour,,,-9.9082625,51.652249,Cork,,Ireland,Embarkation Point
Pontoon Pier,,,-9.8555982,51.6550753,Cork,Pontoon,Ireland,Embarkation Point
Glengarriff Harbour,,,-9.5422482,51.749514,Cork,Glengarriff,Ireland,Embarkation Point
Bantry Harbour,,,-9.46111049999999,51.6798531999999,Cork,,Ireland,Embarkation Point
Baltimore Harbour,,,-9.36989999999999,51.48573,Cork,Baltimore,Ireland,Embarkation Point
Collon House,http://www.collonhouse.com/,353872355645,-6.48649999999999,53.778286,Louth,Collon,Ireland,"Historic Houses and Castle,Gardens,Garden,Tour"
Heir Island,http://www.heirisland.ie,,-9.4395971,51.4947475,Cork,Heir Island,Ireland,"Bird Watching,Nature and Wildlife,Cycling,Sailing,Activity Operator,Swimming,Swimming Pools and Water Park,Venue,Walking,Island,Offshore Island,Natural Landscape"
Hall of the Red Earl,https://galwaycivictrust.ie/,35391564946,-9.05368079999999,53.2710074999999,Galway,,Ireland,Museums and Attraction
It Must Be Dingle Gallery,https://www.itmustbedingle.com/,353669156508,-10.4290671,52.1763325999999,Kerry,,Ireland,"Craft,Shopping,Art Gallery,Food Shops"
Cé Bhun an Bhaile (Bunavalla Pier),,,-10.14927,51.76558,Kerry,,Ireland,Embarkation Point
The Chimera Gallery,https://chimera-gallery.com/,353878038357,-7.3435026,53.5251466,Westmeath,Mullingar,Ireland,Art Gallery
Teach Mhuiris,https://www.gaothdobhair.ie/en/tourist-attractions-gweedore/teach-mhuiris,353749532208,-8.29234646143731,55.0752847715459,Donegal,Derrybeg,Ireland,"Castle,Historic Houses and Castle"
WW2 Memorial and Information Point,,353749136409,-7.9553654,55.1885934,Donegal,Dunfanaghy,Ireland,Public Sculpture
Sarah Walker Gallery,https://sarahwalkergallery.com/,3532770387,-9.9114999,51.6502189,Cork,Castletownbere,Ireland,"Craft,Shopping,Art Gallery,Food Shops"
Ireland Writing Retreat Donegal,https://www.irelandwritingretreat.com,353833356243,-8.23285486695841,55.0514962862241,Donegal,Gweedore,Ireland,"Learning,Activity Operator,Literary Ireland"
Garraí Fadó Garden,https://www.facebook.com/Garra%C3%AD-Fad%C3%B3-Garden-Beara-156532801063072,3532774844,-9.95525744072267,51.685466826339,Cork,Eyeries,Ireland,"Gardening,Nature and Wildlife,Gardens,Garden,Food Shops,Shopping"
North Kerry Museum,http://www.northkerrymuseum.com,353877426231,-9.6553707,52.4708634,Kerry,Ballyduff,Ireland,"Museums and Attraction,Food Shops,Shopping"
Waterville Heritage Gallery,https://skelliggiftstore.com,353871241645,-10.17288159126,51.8283692684111,Kerry,Waterville,Ireland,"Craft,Shopping,Art Gallery,Museums and Attraction,Food Shops"
Michael Hanrahan Artist,https://www.michaelhanrahanartist.com/,353868251550,-9.33880759999999,52.9280625,Clare,Lahinch,Ireland,"Craft,Shopping,Art Gallery,Food Shops"
126 Artist-Run Gallery,https://126gallery.com/,,-9.0494491,53.2772719,Galway,,Ireland,"Craft,Shopping,Art Gallery"
Burren Art & Craft Fair,https://www.facebook.com/burrencrafts,353868111511,-9.15068823475235,53.1169595713339,Clare,Ballyvaughan,Ireland,"Craft,Shopping,Shopping Centres and Department Store,Art Gallery,Food Shops"
Ross Fine Art Gallery and Craft Boutique,https://rossfineart.ie/,353749151926,-7.65064399999999,55.036674,Donegal,Ramelton,Ireland,"Craft,Shopping,Art Gallery"
The Butter Slip - Kilkenny,,,-7.25232939136697,52.6523615238896,Kilkenny,Kilkenny City,Ireland,Museums and Attraction
Bernard McGlinchey Town Park,http://www.donegalcoco.ie,+353(0)749153900,-7.73671587256198,54.9511565041299,Donegal,Letterkenny,Ireland,"Walking,Natural Landscape,Public Park,Nature and Wildlife"
Ballymacool Town Park,http://www.donegalcoco.ie,+353(0)749194297,-7.73671587256198,54.9511565041299,Donegal,Letterkenny,Ireland,"Walking,Natural Landscape,Public Park,Nature and Wildlife"
Burren Experience Guided Walks,http://www.mullaghmore-burren.com,353868219441,-9.06270125396724,52.9449204899724,Clare,Corofin,Ireland,"Learning,Walking,Activity Operator,National Park,National and Forest Park,Tour"
Achill Heritage Centre,https://achillheritagecentre.wordpress.com,353863406396,-9.98337119999999,53.9762268999999,Mayo,,Ireland,"Tracing Your Ancestors,Museums and Attraction,Activity Operator"
Claregalway Museum and Forge,https://facebook.com/ClaregalwayHistoricalSociety,353867778217,-8.927952,53.359957,Galway,Claregalway,Ireland,Museums and Attraction
Kilbaha Gallery,https://www.kilbahagallery.com/,353659058843,-9.8748001,52.5678999999999,Clare,Kilbaha,Ireland,"Craft,Shopping,Shopping Centres and Department Store,Art Gallery,Cafe,Food and Drink,Food Shops"
Goma Contemporary Gallery,https://www.facebook.com/gomawaterford,353871961923,-7.10523489999999,52.2594229,Waterford,,Ireland,Art Gallery
Dursey Sound,,,-10.155077,51.610024,Cork,,Ireland,Embarkation Point
Poet's Cottage,http://www.laois.ie/departments/heritage/laois-heritage-trail/poets-cottage,,-7.5924095,53.0048261,Laois,,Ireland,Museums and Attraction
I am of Ireland,https://www.iamofireland.ie/,353877997317,-7.83661849999999,51.9938669999999,Waterford,Clashmore,Ireland,"Craft,Shopping,Shopping Centres and Department Store,Art Gallery,Food Shops"
Michael Budd Blacksmith,https://www.facebook.com/michaelbuddblacksmith/,353876688400,-8.376667,54.079911,Sligo,Castlebaldwin,Ireland,"Craft,Shopping,Art Gallery"
King of the Vikings,http://www.kingofthevikings.com,353761102676,-7.1065787,52.2602933,Waterford,,Ireland,"Learning,Museums and Attraction"
The Olde Forge at Logue’s of Cranford,,353862592236,-7.6966695,55.1396713,Donegal,Cranford,Ireland,"Museums and Attraction,Food and Drink,Pubs and Bar"
Top of the Rock Viewing Platform Trail,https://facebook.com/rockviewingplatform,+353(0)872989250,-10.2525746836364,51.9603862137861,Kerry,Cahersiveen,Ireland,"Photography,Learning,Walking,Natural Landscape"
Martina Furlong - Artists Studio Gallery,https://www.martinafurlong.com/,353874642440,-6.4063611,52.498219,Wexford,Gorey,Ireland,"Craft,Shopping,Art Gallery"
Marshall Doran Collection at Belleek Castle,https://www.belleekcastle.com/history.html,3539622400,-9.1454577,54.1333375,Mayo,Ballina,Ireland,"Historic Houses and Castle,Castle,Museums and Attraction,Cafe,Food and Drink,Tour"
Haggardstown Old Church and Graveyard,,,-6.3780595,53.9662155,Louth,,Ireland,"Historic Houses and Castle,Church Abbey,Monastery,Churches,Abbeys and Monastery,Ruins"
Blackrock Wetlands,https://visitblackrock.ie/,353872077193,-6.3717605,53.9577093,Louth,,Ireland,"Bird Watching,Nature and Wildlife,Walking,Natural Landscape"
IUNVA Post 19,https://iunvapost19.com/,353864160532,-7.7318534923462,54.9574038713154,Donegal,Letterkenny,Ireland,Public Sculpture
Lisdoonvarna Spa Wells Heritage Centre,https://lisdoonvarna-spa-wells.org/,353657075644,-9.2892478,53.0255378,Clare,Lisdoonvarna,Ireland,"Learning,Museums and Attraction,Cafe,Food and Drink"
Passage West Maritime Museum CLG,http://passagemuseum.ie/index.html,353871363588,-8.336456,51.872362,Cork,Passage West,Ireland,Museums and Attraction
Dingle Oceanworld Aquarium,https://www.dingle-oceanworld.ie,353669152111,-10.278295,52.1399039999999,Kerry,Dingle,Ireland,"Learning,Zoos and Aquarium,Cafe,Food and Drink,Food Shops,Shopping"
Cashel Folk Village Museum,https://www.cashelfolkvillage.com,3536263601,-7.8882142,52.5174899,Tipperary,Cashel,Ireland,"Learning,Museums and Attraction"
Carrowkeel Megalithic Site,http://www.megalithicireland.com/Carrowkeel%20home.htm,,-8.38766713650019,54.0745345605894,Sligo,Carrowkeel,Republic of Ireland,"Church Abbey,Monastery,Churches,Abbeys and Monastery"
Lavit Gallery,https://lavitgallery.com/,353214277749,-8.4793557,51.8963646,Cork,,Ireland,"Craft,Shopping,Art Gallery"
Dysert O'Dea Castle & Clare Archaeology Centre,http://www.dysertcastle.com,353656837401,-9.0663787,52.9113842,Clare,Corofin,Ireland,"Walking,Castle,Historic Houses and Castle,Museums and Attraction,Cafe,Food and Drink,Food Shops,Shopping"
Guillamene and Newtown Cove,https://beachawards.ie/green-coast/,,-7.16489879999999,52.1438616,Waterford,Newtown,Ireland,"Swimming,Swimming Pools and Water Park,Venue,Beach,Natural Landscape"
Coney Island,,,-8.5918066,54.2959612999999,Sligo,Coney Island,Ireland,"Bird Watching,Nature and Wildlife,Walking,Island,Offshore Island,Food and Drink,Pubs and Bar"
Donaghmore Famine Workhouse Museum,http://donaghmoremuseum.ie,353868296685,-7.61259069999999,52.8770211,Laois,Donaghmore,Ireland,"Agriculture,Nature and Wildlife,Photography,Learning,Historic Houses and Castle,Museums and Attraction,Tour"
Coleman Irish Music Centre - Ceoláras Coleman,https://www.colemanirishmusic.com/,353719182599,-8.5230249,53.9962461999999,Sligo,,Ireland,"Learning,Museums and Attraction,Shopping,Traditionally Irish,Venue,Music"
County Museum Dundalk,https://www.louthcoco.ie/en/contact/location_maps/dundalk/dundalk_museum.html,353429327056,-6.3971254,54.0046228,Louth,Dundalk,Ireland,"Historic Houses and Castle,Museums and Attraction,Venue,Music,Tour"
Ballaghmore Castle,"http://www.megalithicireland.com/Ballaghmore%20Castle,%20Laois.html",35350521453,-7.70712899999999,52.9597586,Laois,,Ireland,"Photography,Learning,Historic Houses and Castle,Castle"
Books@One,https://www.booksatone.ie/,3539866885,-9.8098762,53.7626494,Mayo,Louisburgh,Ireland,"Shopping,Shopping Centres and Department Store,Literary Ireland,Cafe,Food and Drink,Food Shops"
Ionad Cois Locha,http://dunleweycentre.com/,353749531699,-8.14764119999999,55.025326,Donegal,Letterkenny,Ireland,"Craft,Shopping,Cruising,Kayaking,Activity Operator,Walking,Museums and Attraction,Cafe,Food and Drink,Boat,Tour"
The Yeats Encounter,https://facebook.com/The-Yeats-Encounter-618433715302579,353871372122,-8.47722771848191,54.2738563268055,Sligo,Sligo Town,Republic of Ireland,"Activity Operator,Literary Ireland"
Stephenstown Pond Nature Park & The Dairy Maid Coffee Shop,http://stephenstownpond.com,353429379019,-6.459102,53.963054,Louth,Knockbridge,Ireland,"Bird Watching,Nature and Wildlife,Fishing,Angling,Learning,Photography,Walking,Forest Park,Park and Forest Walk,Museums and Attraction,Natural Landscape,Venue,Music,Cafe,Food and Drink,Tour"
Sligo Folk Park,https://sligofolkpark.com/,353719165001,-8.39881869999999,54.1294653,Sligo,Riverstown,Ireland,"Museums and Attraction,Cafe,Food and Drink"
Shackleton Museum Athy,https://shackletonmuseum.com/,353598633075,-6.9832541,52.9916784,Kildare,Athy,Ireland,"Museums and Attraction,Tour"
Tropical World,https://tropicalworld.ie/,353749121541,-7.6942623,54.9662137,Donegal,Letterkenny,Ireland,"Bird Watching,Nature and Wildlife,Zoos and Aquarium,Cafe,Food and Drink,Food Shops,Shopping,Tour"
Cavan and Leitrim Railway,https://www.cavanandleitrimrailway.com/,353719638599,-7.9164872,53.8595335,Leitrim,,Ireland,"Museums and Attraction,Tour"
The Burren Art Gallery,https://www.facebook.com/Burren.Art.Gallery/,353862000472,-8.9180727,53.0049327,Clare,,Ireland,"Craft,Shopping,Art Gallery"
The Quiet Man Cottage,https://www.peacockes.ie/facilities/the-quiet-man,35391552306,-9.5390099,53.4560097,Galway,Lurgan,Ireland,Museums and Attraction
Doe Castle,https://heritageireland.ie/places-to-visit/doe-castle/,353872937383,-7.8645123,55.1352927,Donegal,,Ireland,"Castle,Historic Houses and Castle"
Mary Crowley's Artist Studio and Gallery,https://marycrowleyart.com/,353862664554,-7.49599965152231,55.2695837391062,Donegal,Clonmany,Republic of Ireland,"Craft,Shopping,Shopping Centres and Department Store,Art Gallery,Food Shops"
Workhouse Attic Memorial,https://leitrimtourism.com/heritage/st-georges-heritage-and-visitor-centre/,353719621757,-8.0948333,53.9468895999999,Leitrim,,Ireland,"Museums and Attraction,Tour"
The Famine Graveyard,http://www.carrickonshannonparish.com/famine.htm,353719620122,-8.0844231,53.951074,Leitrim,,Ireland,"Gardening,Nature and Wildlife,Gardens,Garden"
Glenview Folk Museum,http://glenviewmuseum.ie,353719644157,-7.7977659,54.0270155,Leitrim,Ballinamore,Ireland,"Restaurant,Museums and Attraction,Food and Drink,Pubs and Bar,Tour"
Sliabh An Iarainn Visitor Centre,https://leitrimtourism.com/heritage/sliabh-an-iarainn-visitor-centre/,353719641851,-8.0492747,54.0388583,Leitrim,,Ireland,Museums and Attraction
Drumkeerin Heritage Centre,,353719648118,-8.14795007756413,54.1706046727649,Leitrim,,Republic of Ireland,Visitor Farm
St George's Heritage & Visitor Centre,https://stgeorgesheritagevisitorcentre.ie/,353719621757,-8.0948333,53.9468895999999,Leitrim,,Ireland,"Learning,Museums and Attraction,Tour"
The Irish Fly Fishing and Game Museum,http://laois.ie/departments/heritage/laois-heritage-trail/irish-fly-fishing-and-game-shooting-museum,353578736112,-7.34727699999999,52.8342124,Laois,Attanagh,Ireland,"Fishing,Angling,Museums and Attraction,Tour"
Costello Chapel,http://www.carrickonshannonparish.com/costello.htm,353719620170,-8.0953457,53.9453089999999,Leitrim,,Ireland,"Church Abbey,Monastery,Churches,Abbeys and Monastery"
Cuilcagh Lakelands Geopark,https://cuilcaghlakelands.org/,353719853692,-7.87827019999999,54.2910792,Cavan,Tuam,Ireland,"Bird Watching,Nature and Wildlife,Cycling,Fishing,Angling,Kayaking,Activity Operator,Photography,Learning,Walking,Forest Park,Park and Forest Walk,Natural Landscape,Cafe,Food and Drink,Tour"
The Cathedral of Saint Patrick and Saint Felim,https://www.kilmorediocese.ie/cathedral-of-st-patrick-st-felim,353494331496,-7.3617541,53.9951218,Cavan,,Ireland,"Photography,Learning,Historic Houses and Castle,Church Abbey,Monastery,Churches,Abbeys and Monastery"
St. Fethlimidh’s Cathedral,https://kilmorecathedralcavan.wordpress.com/,353494337168,-7.41474337699889,53.9797368452996,Cavan,Kilmore,Republic of Ireland,"Historic Houses and Castle,Church Abbey,Monastery,Churches,Abbeys and Monastery"
Belturbet Heritage Railway Museum,https://belturbetheritagerailway.com/,353872414988,-7.4422278,54.0977954,Cavan,Belturbet,Ireland,"Museums and Attraction,Cafe,Food and Drink,Tour"
Abbey Road Artists’ Studios,http://www.athloneartsandtourism.ie/artists-studios/,353906442154,-7.9442923,53.429856,Westmeath,Athlone,Ireland,"Craft,Shopping,Art Gallery"
Nano Nagle Birthplace,http://www.nanonaglebirthplace.ie/,3532226411,-8.52272999999999,52.1512699999999,Cork,,Ireland,"Museums and Attraction,Activity Operator,Tour"
The Kenny Gallery,http://www.TheKennyGallery.ie,35391709350,-9.037494,53.2858129999999,Galway,Galway City,Ireland,"Craft,Shopping,Art Gallery"
Fiona Turley - Gallery Crafts,https://www.fionaturley.com/,3532527972,-8.2491951,52.1758149,Cork,Kilworth,Ireland,"Craft,Shopping,Art Gallery,Food Shops"
Ronan Halpin Gallery,https://ronanhalpin.com/,353872770409,-10.0966407,53.973012,Mayo,Newtown,Ireland,"Craft,Shopping,Art Gallery,Food Shops"
Waterford Room,http://waterfordlibraries.ie/branches/,+353(0)51849975,-7.11108,52.259561,Waterford,Waterford City,Republic of Ireland,"Learning,Historic Houses and Castle,Literary Ireland"
Birr Castle Demesne & Historic Science Centre,https://www.birrcastle.com,353579120336,-7.91448569999999,53.0966996,Offaly,,Ireland,"Learning,Castle,Historic Houses and Castle,Gardens,Garden,Museums and Attraction,Cafe,Food and Drink,Activity Operator,Food Shops,Shopping,Tour"
Dartfield Country Estate and Horse Museum,http://www.dartfield.com,35391843968,-8.479863,53.219883,Galway,Kilreekill,Ireland,"Agriculture,Nature and Wildlife,Horse Riding,Equestrian,Learning,Museums and Attraction,Cafe,Food and Drink,Activity Operator,Food Shops,Shopping"
The Shannon Pot,http://www.marblearchcavesgeopark.com/attraction/shannon-port/,353719853941,-7.919,54.23475,Cavan,,Ireland,"River,Discovery Point"
Castlerea Railway Museum,https://www.hellskitchenmuseum.com/,353872308152,-8.494766,53.769823,Roscommon,,Ireland,Museums and Attraction
Frances Crowe Fibre Artist at Grange Studio,https://francescrowe.com/,353877760250,-8.2470631,53.721639,Roscommon,Grange,Ireland,"Craft,Shopping,Learning,Art Gallery,Activity Operator"
Farney Castle,https://cyrilcullen.wordpress.com/farney-castle,35350443281,-7.901032,52.6718609999999,Tipperary,Thurles,Ireland,"Craft,Shopping,Photography,Learning,Historic Houses and Castle,Castle,Cafe,Food and Drink,Food Shops,Tour"
The West Clare Railway and Heritage Centre,http://www.westclarerailway.ie,353659051284,-9.53546759999999,52.6683491,Clare,Moyasta,Ireland,Museums and Attraction
Clew Bay Heritage Centre,https://www.westportheritage.com/,3539826852,-9.55461,53.801673,Mayo,Rosbeg,Ireland,"Walking,Tracing Your Ancestors,Museums and Attraction,Activity Operator,Tour"
The Masonic Centre,http://freemasonsnorthmunster.com,35361313399,-8.6256075,52.6704984,Limerick,,Ireland,"Learning,Historic Houses and Castle,Museums and Attraction,Tour"
Nenagh Heritage Centre & North Tipperary Genealogy,https://www.facebook.com/Nenaghheritage/,3536733850,-8.2007414,52.8656669,Tipperary,Nenagh,Ireland,"Tracing Your Ancestors,Historic Houses and Castle,Museums and Attraction,Tour"
St. Kilians Heritage Centre,http://www.stkiliansheritagecentre.ie,353469242433,-6.9574976,53.8125213,Cavan,,Ireland,"Museums and Attraction,Shopping,Cafe,Food and Drink,Tour"
UCC Visitors' Centre,https://www.ucc.ie/en/discover/visit/centre,353214901876,-8.49207049999999,51.893486,Cork,,Ireland,"Historic Houses and Castle,Museums and Attraction,Cafe,Food and Drink,Food Shops,Shopping,Tour"
The Sacred Heart Church,http://www.sacredheartroscommon.com,353906626298,-8.195589,53.628628,Roscommon,Roscommon Town,Republic of Ireland,"Church Abbey,Monastery,Churches,Abbeys and Monastery"
Kiltyclogher Heritage Centre and Seán MacDiarmada’s Cottage,http://kiltyclogherheritagecentre.com,353719854865,-8.03790249999999,54.3562595,Leitrim,Kiltyclogher,Ireland,"Museums and Attraction,Tour"
Claypipe Visitor Centre,https://www.facebook.com/ClaypipeCentre,353906661923,-8.095668,53.576378,Roscommon,Knockcroghery,Ireland,"Craft,Shopping,Museums and Attraction,Food Shops"
Inishmurray Island,https://inishmurray.com/,,-8.66140731884763,54.4324497652454,Sligo,Inishmurray,Republic of Ireland,"Island,Offshore Island"
Custom House Studios & Gallery,https://www.customhousestudios.ie/,3539828735,-9.5471245,53.8002199,Mayo,,Ireland,"Craft,Shopping,Art Gallery"
Garfinny Bridge,https://dingle-peninsula.ie/component/zoo/item/garfinny-bridge.html,,-10.219193,52.140079,Kerry,Dingle,Republic of Ireland,Museums and Attraction
Bishop's Quarter ,,,-9.127942,53.1291281,Clare,Ballyvaughan,Ireland,"Swimming,Swimming Pools and Water Park,Venue,Beach,Natural Landscape"
Lough Derg Place of Pilgrimage,https://www.loughderg.org/,353719861518,-7.87127813389588,54.6089850115485,Donegal,Pettigo,Republic of Ireland,"Transport,Walking,Church Abbey,Monastery,Churches,Abbeys and Monastery,Island,Offshore Island,Coach,Road"
Kildemock Jumping Church,http://www.louthholidays.com,353429352111,-6.518018,53.831371,Louth,Ardee,Republic of Ireland,"Church Abbey,Monastery,Churches,Abbeys and Monastery,Ruins,Historic Houses and Castle"
John Hurley Gallery,http://hurleyscapes.com/,353872838895,-9.70546199999999,52.2690129,Kerry,Tralee,Ireland,"Craft,Shopping,Art Gallery"
Irish Military War Museum,https://irishmilitarywarmuseum.com/,353419819501,-6.47071249999999,53.7642649999999,Meath,Collon,Ireland,"Learning,Museums and Attraction,Cafe,Food and Drink,Activity Operator,Tour"
Christ Church - Glandore,https://www.facebook.com/christchurchglandore,353238848166,-9.1237442,51.5656831,Cork,,Ireland,"Historic Houses and Castle,Church Abbey,Monastery,Churches,Abbeys and Monastery"
Kilkenny City Library,https://www.kilkennylibrary.ie,+353(0)567794174,-7.250184,52.653473,Kilkenny,Kilkenny City,Republic of Ireland,"Learning,Literary Ireland"
Kilkenny Library Local Studies,http://kilkennylibrary.ie/eng/our_services/local_studies,353567794160,-7.24659719999999,52.655429,Kilkenny,,Ireland,"Learning,Tracing Your Ancestors,Literary Ireland"
Kenmare Lace and Design Centre,https://kenmarelace.ie/,353646642978,-9.5846925,51.8805844,Kerry,Kenmare,Ireland,"Craft,Shopping,Learning,Museums and Attraction,Food Shops"
Kerry Writers' Museum,https://www.kerrywritersmuseum.com/,3536822212,-9.4864602,52.4446144,Kerry,Listowel,Ireland,"Learning,Museums and Attraction,Literary Ireland,Cafe,Food and Drink"
Valentia Slate,https://www.facebook.com/ValentiaSlate/,353862398008,-10.3427468,51.9251401,Kerry,,Ireland,"Activity Operator,Natural Landscape,Tour"
Macalla Farm,https://macallafarm.ie,353872504845,-9.9754118,53.816232,Mayo,,Ireland,"Food and Drink,Restaurant,Learning,Activity Operator,Island,Offshore Island,Artisan,Local Produce,Vegan,Vegetarian"
Butler Gallery,https://www.butlergallery.ie,353567761106,-7.2491045,52.6537735,Kilkenny,Kilkenny City,Republic of Ireland,"Restaurant,Learning,Photography,Art Gallery,Museums and Attraction,Cafe,Food and Drink,Vegan,Vegetarian"
Slieve Bloom Mountains,,,-7.5672222,53.0933333,Laois,,Ireland,"Walking,Natural Landscape"
Clare Museum,https://www.clarelibrary.ie/eolas/claremuseum,353656823382,-8.98146669999999,52.8440982,Clare,Ennis,Ireland,"Learning,Museums and Attraction"
River Nore,,,-7.3441386,52.7294592,,,Ireland,"River,Discovery Point"
Lorrha Monastic Village,https://www.visitlorrhadorrha.com/history.html,353872031798,-8.1223562,53.0944354,Tipperary,Lorrha,Ireland,"Church Abbey,Monastery,Churches,Abbeys and Monastery,Ruins,Historic Houses and Castle,Tour"
Aran Off Road Experience,https://www.aranoffroadexperience.ie/,353830185175,-9.7252,53.13111,Galway,,Ireland,"Transport,Learning,Walking,Activity Operator,Historic Houses and Castle,Island,Offshore Island,Natural Landscape,Day Tour,Tour,Coach,Road"
The Irish Museum of Time,https://www.waterfordtreasures.com/irish-museum-of-time,353761102501,-7.1068373,52.2606433,Waterford,,Ireland,"Craft,Shopping,Museums and Attraction,Tour"
Irish Silver Museum,https://www.waterfordtreasures.com/irish-silver-museum,353761102501,-7.1070386,52.2601005999999,Waterford,Waterford City,Ireland,"Craft,Shopping,Historic Houses and Castle,Museums and Attraction"
Ionad Na Feamainne,https://theseaweedcentre.com,35391551596,-9.7318237,53.2419093,Galway,,Ireland,"Food and Drink,Learning,Pampering,Health Farm,Spa and Wellness,Specialised Retreat,Walking,Activity Operator,Museums and Attraction,Shopping,Spa,Cafe,Food Shops,Tour"
Marlhill Open Farm,https://marlhillopenfarm.ie/,353872499818,-7.91422069999999,52.443843,Tipperary,New Inn,Ireland,"Agriculture,Nature and Wildlife,Visitor Farm,Cafe,Food and Drink,Activity Operator"
Deserted Village Guided Tour,https://achilltourism.com/deserted-village-guided-tours/,3539820400,-10.0767149,53.996425,Mayo,,Republic of Ireland,"Activity Operator,Ruins,Historic Houses and Castle,Tour,Walking"
Rosemary's Art School and Gallery,http://www.rosemaryfallon.ie/artschool.html,353876771104,-8.7549624,53.1534578,Galway,Galway City,Republic of Ireland,"Craft,Shopping,Learning,Shopping Centres and Department Store,Art Gallery"
Kiltartan Gregory Museum,https://www.kiltartangregorymuseum.org/,353868252164,-8.81543499999999,53.0994010999999,Galway,Cross,Ireland,"Historic Houses and Castle,Museums and Attraction,Literary Ireland,Tour"
Market House Craftworks,https://markethousecraftworks.ie/,353833368232,-7.84930149999999,52.1466566,Waterford,Cappoquin,Ireland,"Craft,Shopping,Shopping Centres and Department Store,Art Gallery,Food Shops"
Skellig Six18 Distillery & Visitor Experience,https://skelligsix18distillery.ie/,353669400618,-10.2395542,51.9355385,Kerry,Cahersiveen,Ireland,"Food and Drink,Restaurant,Learning,Activity Operator,Museums and Attraction,Artisan,Local Produce,Food Shops,Shopping,Tour"
Sligo Famine Family Memorial,,,-8.47677159999999,54.2738410999999,Sligo,,Ireland,Public Sculpture
WB Yeats Statue,,,-8.47384559999999,54.2725362,Sligo,,Ireland,"Photography,Learning,Public Sculpture,Literary Ireland"
Gleniff Horseshoe,https://sligowalks.ie/walks/the-gleniff-horse-shoe-benwisken-trail/,,-8.41511929999999,54.3708664,Sligo,,Ireland,"Cycling,Walking,Natural Landscape"
Charlie Chaplin Statue,,,-10.172121,51.8263396999999,Kerry,Waterville,Republic of Ireland,Public Sculpture
Viking Long Boat and Dragon Slayer Sword,,,-7.1053454,52.2605403,Waterford,,Ireland,Public Sculpture
The National Monument,,,-8.4745872,51.8960944,Cork,,Ireland,"Tracing Your Ancestors,Public Sculpture"
Statue of King Puck Killorglin,,,-9.78185769999999,52.1063939999999,Kerry,,Ireland,Public Sculpture
The Skellig Experience Visitor Centre,https://skelligexperience.com/,353669476306,-10.3674232,51.8896351999999,Kerry,Valentia Island,Ireland,"Restaurant,Activity Operator,Museums and Attraction,Food and Drink,Day Tour,Tour,Food Shops,Shopping"
The Monk's Fishing House,,,-9.2889015,53.5399542,Mayo,Cong,Ireland,"Ruins,Historic Houses and Castle"
 Newport Railway Viaduct,,,-9.5449174,53.8843415,Mayo,Newport,Ireland,Historic Houses and Castle
Mulranny Saltmarsh,,,-9.7843193,53.8975187,Mayo,,Ireland,"Bird Watching,Nature and Wildlife,Natural Landscape"
Quincentennial  Fountain ,,,-9.04941819999999,53.2747095,Galway,Eyre Square,Republic of Ireland,"Historic Houses and Castle,Public Sculpture"
Galway City's Medieval Walls ,https://www.galwaycitymuseum.ie/medieval-galway/?locale=en,,-9.0499506,53.2731132,Galway,Eyre Square,Republic of Ireland,"Historic Houses and Castle,Ruins"
Knockboy and Priest's Leap,,,-9.47126589999999,51.7935396,Cork,,Ireland,Natural Landscape
Statue of John B. Keane,,,-9.48590239999999,52.4459208,Kerry,Listowel,Ireland,Public Sculpture
The Mission Sculpture,,,-9.5135087,52.0570463,Kerry,Killarney,Republic of Ireland,Public Sculpture
Dunloe Ogham Stones,,,-9.63480199999999,52.0603969999999,Kerry,Tralee,Ireland,Public Sculpture
"Árthach Dána, Amergin Memorial Sculpture & Sundial",,,-10.172165,51.8256197,Kerry,Waterville,Ireland,"Historic Houses and Castle,Public Sculpture"
Mick O'Dwyer Statue,,,-10.1721644,51.8267389,Kerry,Waterville,Ireland,"Gaa,Public Sculpture"
Monsignor Hugh O'Flaherty Memorial Statue,,,-9.5110669,52.0572116,Kerry,Killarney,Ireland,Public Sculpture
Johnny O'Leary Memorial Statue,,,-9.5071997,52.0573361,Kerry,Killarney,Ireland,Public Sculpture
Charles De Gaulle Memorial,,,-9.9018436,51.8388354999999,Kerry,,Ireland,Public Sculpture
Bronze Statue of John Egan,,,-9.89887609999999,51.8377533,Kerry,,Ireland,"Gaa,Public Sculpture"
The Way the Fairies Went,,,-9.9002382,51.8373175,Kerry,,Ireland,"Gardens,Garden,Public Sculpture"
"Church Island, Lough Currane",,,-10.129444,51.835,Kerry,,Ireland,"Church Abbey,Monastery,Churches,Abbeys and Monastery,Island,Offshore Island,Ruins,Historic Houses and Castle"
The Diaspora Lady,,,-9.7897011,52.1066299999999,Kerry,Killorglin,Ireland,Public Sculpture
Ballykissane Monument,,,-9.7854727,52.1255557,Kerry,,Republic of Ireland,Public Sculpture
Pikeman Statue,,,-9.7051622,52.269098,Kerry,Tralee,Republic of Ireland,Public Sculpture
Willie Clancy Statue,,,-9.4007763,52.8562013,Clare,,Ireland,Public Sculpture
Mohammed Ali Monument,,,-8.9850989,52.8379988,Clare,Ennis,Ireland,Public Sculpture
The O'Connell Monument,,,-8.63174589999999,52.6589358999999,Limerick,Limerick City,Republic of Ireland,Public Sculpture
Tait's Clock,,,-8.6273501,52.6599472,Limerick,,Ireland,"Historic Houses and Castle,Public Sculpture"
Charlie Haughey Memorial,,,-10.2751531,52.1387839,Kerry,Dingle,Ireland,Public Sculpture
Writers Wall,,,-10.2786912,52.1443777,Kerry,Dingle,Republic of Ireland,Public Sculpture
The Whitethorn Gallery,https://thewhitethorngallery.ie/,353872275171,-10.0210035,53.4890736,Galway,Clifden,Republic of Ireland,"Craft,Shopping,Art Gallery"
Eamon Kelly Memorial Statue,,,-9.2719471,52.1166851,Kerry,,Ireland,Public Sculpture
Foust Gallery,http://www.sarafoustartist.com,353863366908,-9.293533,52.9398625,Clare,,Ireland,"Craft,Shopping,Art Gallery,Food Shops"
Avoca Mill,https://www.avoca.com/en/stores-and-cafes/village,35340235105,-6.210997,52.8613935,Wicklow,Avoca,Ireland,"Restaurant,Craft,Shopping,Food and Drink,Shopping Centres and Department Store,Museums and Attraction,Cafe,Vegetarian,Food Shops,Tour"
Avoca Mount Usher Gardens,https://www.avoca.com/en/stores-and-cafes/mount-usher,35340440116,-6.10654169999999,53.0087182,Wicklow,Ashford,Ireland,"Restaurant,Food and Drink,Shopping,Shopping Centres and Department Store,Gardens,Garden,Cafe,Vegetarian,Food Shops"
Green Acres Restaurant and Gallery,https://www.greenacres.ie/,353539122975,-6.4639912,52.3413346,Wexford,,Ireland,"Food and Drink,Restaurant,Art Gallery,Shopping,Artisan,Cafe,Local Produce,Food Shops"
"The Old Bridge, Trim",,,-6.7910032,53.556326,Meath,Trim,Ireland,Historic Houses and Castle
Wellington Memorial,http://www.trimtown.ie/places-of-interest-in-trim-town-co-meath/wellington-memorial/,,-6.79374239999999,53.5521983999999,Meath,Trim,Ireland,"Historic Houses and Castle,Public Sculpture"
Rose of Tralee Statue,,,-9.7043707,52.2671298,Kerry,Tralee,Ireland,"Public Park,Nature and Wildlife,Public Sculpture"
The Courthouse Gallery & Studios,http://thecourthousegallery.com,353657071630,-9.2919669,52.9407303,Clare,,Ireland,"Craft,Shopping,Art Gallery"
Ballinamuck Visitor Centre,https://www.facebook.com/1798-Visitor-Centre-Ballinamuck-648915221856896/,353879613312,-7.7170386,53.8653036,Longford,Ballinamuck,Ireland,"Historic Houses and Castle,Museums and Attraction"
Garden Tours of Ireland,https://www.gardentoursofireland.com,35350454688,-7.9378116,52.6518532,Tipperary,,Ireland,"Gardening,Nature and Wildlife,Activity Operator,Gardens,Garden,Tour"
The Slieve Felim Way,https://www.sportireland.ie/outdoors/walking/trails/slieve-felim-way,,-8.13848501220707,52.8114301067349,Tipperary,Silvermines,Republic of Ireland,"Walking,Natural Landscape"
Westport Greenway,http://www.mayowalks.ie/WalkingTrails/Greenway/WestportGreenway/,,-9.5143467,53.8021307,Mayo,Westport,Ireland,"Walking,Natural Landscape"
Lismore Library,http://waterfordlibraries.ie/branches/,353761102377,-7.9348626,52.1366658,Waterford,Lismore,Ireland,"Learning,Literary Ireland"
Michael Collins Monument,,,-8.8564753,51.8135505,Cork,,Ireland,Public Sculpture
Father Mathew Statue,,,-8.47032939999999,51.8999630999999,Cork,,Ireland,Public Sculpture
Ross Castle,https://heritageireland.ie/visit/places-to-visit/ross-castle/,353646635851,-9.53143809999999,52.0412494,Kerry,Killarney,Ireland,"Cruising,Cycling,Fishing,Angling,Photography,Learning,Walking,Historic Houses and Castle,Castle,National Park,National and Forest Park,Natural Landscape,Boat,Tour"
Clonakilty Blackpudding Visitor Centre,https://www.clonakiltyblackpudding.ie/visitor-centre/,353238834835,-8.90495389999999,51.6200753,Cork,Western Road,Ireland,"Food and Drink,Restaurant,Museums and Attraction,Food Shops,Shopping,Tour"
Avoca Powerscourt,https://www.avoca.com/en/stores-and-cafes/powersourt,35312046066,-6.1866327,53.1842509999999,Wicklow,Enniskerry,Republic of Ireland,"Restaurant,Food and Drink,Shopping,Shopping Centres and Department Store,Historic Houses and Castle,Cafe,Vegetarian,Food Shops"
Tig Bhric & West Kerry Brewery,https://westkerrybrewery.ie/,353876822834,-10.3863964,52.1704021,Kerry,Dingle Peninsula,Ireland,"Craft,Shopping,Food and Drink,Restaurant,Museums and Attraction,Pubs and Bar,Tour"
Knights and Conquests Exhibition Centre,https://www.knightsandconquests.ie,353867006715,-7.4969922,53.7751899,Longford,Granard,Ireland,"Activity Operator,Museums and Attraction,Tour"
The People's Museum of Limerick,http://peoplesmuseum.ie,353871095906,-8.6299147,52.6582447,Limerick,Limerick City,Republic of Ireland,Museums and Attraction
Ulster Canal Stores Visitor Centre,https://ulstercanalstoresvisitorcentre.ie/,3534752125,-7.236207,54.1758511,Monaghan,Clones,Ireland,"Craft,Shopping,Historic Houses and Castle,Museums and Attraction,Cafe,Food and Drink,Activity Operator,Food Shops,Tour"
Clare Heritage & Genealogy Centre,http://www.clareroots.com,353656837955,-9.0627719,52.9449817,Clare,Corofin,Ireland,"Learning,Activity Operator,Tracing Your Ancestors,Museums and Attraction"
The Irish Workhouse Centre,http://www.irishworkhousecentre.ie,353909759200,-8.22380101827695,53.0988276375127,Galway,Portumna,Republic of Ireland,"Museums and Attraction,Food Shops,Shopping,Tour"
Athenry Arts and Heritage Centre,https://www.athenryheritagecentre.com,35391844661,-8.746298,53.299265,Galway,Athenry,Ireland,"Learning,Museums and Attraction,Tour"
Dan O’Hara’s Homestead  - Connemara Heritage & History Centre,https://www.connemaraheritage.net/,3539521246,-9.9117698,53.4792441,Galway,Clifden,Ireland,"Restaurant,Learning,Museums and Attraction,Food and Drink"
Sea Life Aquarium Bray,https://www.visitsealife.com/bray/,35312866939,-6.09814719999999,53.2034419,Wicklow,Bray,Ireland,Zoos and Aquarium
Fort Dunree Military Museum,http://dunree.pro.ie/,353749361817,-7.553856,55.196451,Donegal,Buncrana,Ireland,"Walking,Museums and Attraction,Cafe,Food and Drink,Tour"
West Cork Model Railway Village,https://modelvillage.ie/,353238833224,-8.88119489999999,51.6205307,Cork,Clonakilty,Ireland,"Activity Operator,Museums and Attraction,Cafe,Food and Drink,Tour"
Carlow County Museum,https://carlowmuseum.ie,353599131554,-6.92801979999999,52.8362239999999,Carlow,,Ireland,"Learning,Museums and Attraction"
Medieval Mile Museum,https://www.medievalmilemuseum.ie,353567817022,-7.25234849999999,52.6516126,Kilkenny,,Ireland,"Historic Houses and Castle,Museums and Attraction,Tour"
Youghal Clock Gate Tower,https://youghalclockgate.ie,3532420769,-7.846767,51.952759,Cork,Youghal,Ireland,"Historic Houses and Castle,Museums and Attraction,Tour"
Michael Collins House,http://michaelcollinshouse.ie,353238858676,-8.8914,51.6217,Cork,Clonakilty,Ireland,"Museums and Attraction,Food Shops,Shopping,Tour"
Uillinn West Cork Arts Centre,https://www.westcorkartscentre.com/,3532822090,-9.2675617,51.5488554,Cork,Skibbereen,Ireland,"Craft,Shopping,Learning,Art Gallery,Cafe,Food and Drink"
Killary Fjord Shellfish,http://www.KillaryFjordShellfish.com,353876407713,-9.8043011,53.6009459,Galway,,Ireland,"Agriculture,Nature and Wildlife,Food and Drink,Restaurant,Learning,Visitor Farm,Tour"
Waterford Treasures Museums in the Viking Triangle,https://www.waterfordtreasures.com/,353761102501,-7.1076919,52.2595408,Waterford,,Ireland,"Museums and Attraction,Tour,Walking"
Francis Ledwidge Museum,http://www.francisledwidge.com,353419824544,-6.5274991,53.7071243,Meath,Slane,Ireland,"Learning,Historic Houses and Castle,Museums and Attraction,Tour"
Patrick Kavanagh Centre,https://www.patrickkavanaghcentre.com/,353429378560,-6.5769969,54.0016585,Monaghan,,Ireland,"Learning,Museums and Attraction,Literary Ireland,Tour"
Atlantic Air Adventures,https://atlanticairadventures.com,35361363687,-8.870205,52.713908,Clare,,Ireland,"Learning,Activity Operator,Museums and Attraction"
Father Peyton Centre,https://fatherpeytoncentre.ie/,3539645374,-9.0840683,54.0498936,Mayo,Ballina,Ireland,Museums and Attraction
Blackwater Castle,https://www.blackwatercastle.com/history-and-heritage/,3532226333,-8.460477,52.170583,Cork,Castletownroche,Ireland,"Castle,Historic Houses and Castle,Tour"
Allihies Copper Mine Museum,http://www.acmm.ie/theminemuseum,3532773218,-10.045585,51.638933,Cork,Allihies,Republic of Ireland,"Learning,Walking,Museums and Attraction,Cafe,Food and Drink"
Enniscorthy Castle,http://www.enniscorthycastle.ie,353539234699,-6.56722349999999,52.5014239,Wexford,Enniscorthy,Ireland,"Historic Houses and Castle,Castle,Tour"
Lismore Castle Art Gallery,http://www.lismorecastlearts.ie,3535854061,-7.9347132,52.1405878,Waterford,Lismore,Ireland,"Craft,Shopping,Art Gallery"
Highlanes Municipal Art Gallery,https://highlanes.ie/,353419803311,-6.34864739999999,53.7153681,Louth,Drogheda,Ireland,"Craft,Shopping,Learning,Historic Houses and Castle,Art Gallery,Church Abbey,Monastery,Churches,Abbeys and Monastery,Cafe,Food and Drink,Local Produce,Restaurant,Tour"
Old Cork Waterworks Experience,http://www.lifetimelab.ie,353214941500,-8.50929309999999,51.8950229999999,Cork,,Ireland,"Learning,Historic Houses and Castle,Museums and Attraction,Cafe,Food and Drink"
Newbridge Silverware Visitor Centre,https://visitnewbridgesilverware.com/,35345431301,-6.7967953,53.1759778,Kildare,Newbridge,Ireland,"Craft,Shopping,Shopping Centres and Department Store,Museums and Attraction,Cafe,Food and Drink,Food Shops,Tour"
The National 1798 Rebellion Centre,http://www.1798centre.ie/,353539237596,-6.5693797,52.4967188,Wexford,Enniscorthy,Ireland,"Museums and Attraction,Tour"
Ardfert Cathedral,https://heritageireland.ie/visit/places-to-visit/ardfert-cathedral/,353667134711,-9.78162969999999,52.3285242999999,Kerry,Ardfert,Ireland,"Historic Houses and Castle,Church Abbey,Monastery,Churches,Abbeys and Monastery,Ruins"
Cork Butter Museum,http://thebuttermuseum.com/,353214300600,-8.476735,51.9027649999999,Cork,,Ireland,"Learning,Historic Houses and Castle,Museums and Attraction"
The Burren Centre,http://www.theburrencentre.ie,353657088030,-9.21661239999999,52.9902419999999,Clare,Kilfenora,Ireland,"Museums and Attraction,Natural Landscape,Cafe,Food and Drink"
Foynes Flying Boat & Maritime Museum,http://www.flyingboatmuseum.com,3536965416,-9.1098398,52.6115726,Limerick,Foynes,Ireland,"Restaurant,Museums and Attraction,Food and Drink,Food Shops,Shopping,Tour"
Cork City Gaol Heritage Centre,https://corkcitygaol.com/,353214305022,-8.49886759999999,51.8990434,Cork,,Ireland,"Historic Houses and Castle,Museums and Attraction,Food Shops,Shopping,Tour"
Old Irish Goat Visitor Centre,https://oldirishgoat.ie,,-9.756214,53.9060588999999,Mayo,,Ireland,"Learning,Shopping,Shopping Centres and Department Store,Visitor Farm,Food Shops"
Arigna Mining Experience,https://www.arignaminingexperience.ie,353719646466,-8.120751,54.07755,Roscommon,,Ireland,"Learning,Museums and Attraction,Cafe,Food and Drink,Food Shops,Shopping"
Aughnanure Castle,https://heritageireland.ie/visit/places-to-visit/aughnanure-castle/,35391552214,-9.2757515,53.4187829,Galway,Oughterard,Ireland,"Castle,Historic Houses and Castle,Tour"
St Tola Irish Goat Farm,https://www.st-tola.ie/,353656836633,-9.180328,52.9027043,Clare,,Ireland,"Food and Drink,Restaurant,Visitor Farm,Artisan,Local Produce"
Aillwee Cave & The Birds of Prey Centre,https://www.aillweecave.ie/,353657077036,-9.1436674,53.0891282,Clare,Ballyvaughan,Ireland,"Falconry,Nature and Wildlife,Activity Operator,Natural Landscape,Cafe,Food and Drink,Tour"
Lifford Old Courthouse,https://liffordoldcourthouse.com/,353749141733,-7.4786262,54.8332160999999,Donegal,Lifford,Ireland,"Museums and Attraction,Food and Drink,Restaurant,Tour"
Sam Maguire Visitor Experience,http://fanlobbus.ie/Sam-Maguire.htm,353872390849,-9.11039919999999,51.7221878999999,Cork,Dunmanway,Ireland,"Gaa,Learning,Activity Operator,Museums and Attraction"
Holycross Abbey,http://www.holycrossabbey.ie,35350443124,-7.8681021,52.6395472,Tipperary,Holycross,Ireland,"Church Abbey,Monastery,Churches,Abbeys and Monastery,Food Shops,Shopping,Tour"
Michael Davitt Museum,http://www.michaeldavittmuseum.ie,353949031942,-9.1307741,53.921068,Mayo,,Ireland,"Tracing Your Ancestors,Church Abbey,Monastery,Churches,Abbeys and Monastery,Museums and Attraction,Ruins,Historic Houses and Castle,Activity Operator"
South Tipperary Arts Centre,https://www.southtippartscentre.ie/,353526127877,-7.69873379999999,52.3531998,Tipperary,Raheen,Ireland,"Craft,Shopping,Learning,Art Gallery"
The National Reptile Zoo,https://www.nationalreptilezoo.ie/,353567761783,-7.2312404,52.6559278999999,Kilkenny,,Ireland,"Learning,Zoos and Aquarium,Food Shops,Shopping,Tour"
Doolin Cave,https://www.doolincave.ie,353657075761,-9.34514919999999,53.0409745,Clare,Doolin,Ireland,"Museums and Attraction,Cafe,Food and Drink,Food Shops,Shopping,Tour"
Avoca Kilmacanoge,https://www.avoca.com/en/stores-and-cafes/kilmacanoge,35312746900,-6.142179,53.172982,Wicklow,Kilmacanogue,Ireland,"Craft,Shopping,Shopping Centres and Department Store,Gardens,Garden,Cafe,Food and Drink,Food Shops"
Connacht Whiskey Distillery,https://connachtwhiskey.com,3539674902,-9.14426029999999,54.1218784999999,Mayo,Belleek,Ireland,"Food and Drink,Restaurant,Learning,Museums and Attraction,Food Trails and Tour,Tour"
Dingle Whiskey Distillery,http://dingledistillery.ie,353664029011,-10.2892974,52.1418288,Kerry,,Ireland,"Food and Drink,Restaurant,Learning,Museums and Attraction,Food Trails and Tour,Tour"
Dunbrody Famine Ship Experience and Restaurant,https://www.dunbrody.com,35351425239,-6.9478547,52.3938096,Wexford,New Ross,Ireland,"Restaurant,Museums and Attraction,Food and Drink,Tour"
Inishowen Maritime Museum & Planetarium,https://inishowenmaritime.com/,353749381363,-6.9853301,55.2034315,Donegal,Greencastle,Ireland,"Movies,Cinema,Venue,Museums and Attraction,Cafe,Food and Drink"
Shannonbridge Fortifications,http://www.shannonbridgefortifications.ie,353909674973,-8.052321,53.2791924999999,Roscommon,,Ireland,"Walking,Museums and Attraction,Cafe,Food and Drink,Food Shops,Shopping"
Crag Cave,http://www.cragcave.com,353667141244,-9.444364,52.247082,Kerry,Castleisland,Republic of Ireland,"Natural Landscape,Cafe,Food and Drink,Food Shops,Shopping,Tour"
Ormond Castle,https://heritageireland.ie/places-to-visit/ormond-castle/,35351640787,-7.4077121,52.3453617,Tipperary,Carrickbeg,Ireland,"Photography,Learning,Walking,Historic Houses and Castle,Castle,Tour"
Dungarvan Castle,https://heritageireland.ie/places-to-visit/dungarvan-castle/,3535848144,-7.6161511054878,52.0892648611029,Waterford,Dungarvan,Republic of Ireland,"Historic Houses and Castle,Castle,Museums and Attraction"
The Kennedy Homestead,http://www.kennedyhomestead.ie,35351388264,-6.9808663,52.3463063999999,Wexford,Dunganstown,Ireland,"Photography,Learning,Museums and Attraction,Tour"
Michael Collins Centre,http://www.michaelcollinscentre.com,353238846107,-8.82139099999999,51.6431607,Cork,Clonakilty,Ireland,"Learning,Museums and Attraction,Tour"
"The Quiet Man Museum, Tours & Giftshop",http://www.quietmanmuseum.com,353949546089,-9.28811549999999,53.5408714,Mayo,Cong,Ireland,"Transport,Movies,Cinema,Venue,Activity Operator,Museums and Attraction,Tour,Coach,Road"
The Music Makers of West Clare,http://www.themusicmakers.ie,353657085785,-9.40333139999999,52.8540133,Clare,,Ireland,"Learning,Museums and Attraction"
"Muckross House, Gardens & Traditional Farms",http://www.muckross-house.ie,353646670144,-9.5042922,52.0180827,Kerry,Killarney,Ireland,"Gardens,Garden,Historic Houses and Castle,Museums and Attraction,National Park,National and Forest Park,Visitor Farm,Cafe,Food and Drink,Food Shops,Shopping"
St Brigid's Well & Shrine,,,-7.352575,53.5495302,Westmeath,,Ireland,Public Sculpture
Queen Maeve Trail,https://sligowalks.ie/walks/knocknarea-queen-maeve-trail,,-8.58510326209113,54.270174038485,Sligo,,Ireland,"Walking,Natural Landscape"
The Model - Home of the Niland Collection,https://www.themodel.ie/,353719141405,-8.46865119999999,54.2729051,Sligo,,Ireland,"Craft,Shopping,Movies,Cinema,Venue,Art Gallery,Cafe,Food and Drink"
Mitchelstown Cave,http://mitchelstowncave.com/,353527467246,-8.1086504,52.3057709,Tipperary,,Ireland,"Walking,Activity Operator,Natural Landscape,Tour"
Ballinastoe and Lower Vartry Reservoir,https://www.sportireland.ie/outdoors/walking/trails/roundwood-reservoir-lower-vartry-trail,,-6.20224303535155,53.0912329981869,Wicklow,Roundwood,Ireland,"Walking,Natural Landscape"
Skibbereen Heritage Centre,https://skibbheritage.com/,3532840900,-9.271913,51.5508649999999,Cork,Skibbereen,Ireland,"Tracing Your Ancestors,Museums and Attraction"
Connemara Sheep and Wool Centre,https://www.sheepandwoolcentre.com/,3539542323,-9.69386569999999,53.5960947999999,Galway,,Ireland,"Craft,Shopping,Learning,Shopping Centres and Department Store,Museums and Attraction,Food Shops"
Kilkenny Design Centre,https://kilkennydesign.com,353567722118,-7.24949196560669,52.6498221823626,Kilkenny,Kilkenny City,Republic of Ireland,"Restaurant,Craft,Shopping,Historic Houses and Castle,Food and Drink,Food Shops"
Carrick-On-Suir Heritage Centre and Friary,https://carrickonsuir.net/item/heritage-centre-tourist-office/,35351640200,-7.4131187,52.3466201,Tipperary,Carrickbeg,Ireland,"Tracing Your Ancestors,Church Abbey,Monastery,Churches,Abbeys and Monastery,Museums and Attraction"
Sheep's Head Way,https://www.sportireland.ie/outdoors/walking/trails/sheeps-head-way,,-9.7033039,51.5810602,Cork,Kilcrohane,Ireland,"Walking,Natural Landscape"
Finnerty's Mills,https://www.facebook.com/FinnertysMills/,353863855657,-8.4623733,53.1609948,Galway,Leitrim,Ireland,"Learning,Historic Houses and Castle,Museums and Attraction"
Joan Clancy Art Gallery,https://www.joanclancygallery.com/,3535846205,-7.59762776736675,52.0571518478223,Waterford,Ring,Republic of Ireland,"Craft,Shopping,Art Gallery"
